,name,municipal,zipcode,address,latitude,longitude,buisness_type
29,Food Land,Boston,2122,199 Adams St,42.302039,-71.06015,Food access
35,660 Corp,Boston,2215,543 Commonwealth Ave,42.349045,-71.097122,Food access
60,7-Eleven Inc,Boston,2114,66 Charles St,42.357576,-71.07045,Food access
64,75 State St Lobby Shop,Boston,2109,75 State St,42.358449,-71.055089,Food access
65,777 Convenience Store,Boston,2128,215 Trenton St,42.380846,-71.031079,Food access
95,Adam's Convenience Store,Boston,2108,149 Hanover St,42.357979,-71.062564,Food access
123,Alltown Roxbury,Boston,2118,85 Southampton St,42.331916,-71.070384,Food access
140,Anais Convenience Store,Boston,2108,333 Washington St,42.356916,-71.059193,Food access
146,Andrew Square Convenience,Boston,2127,390 Dorchester St # A,42.329751,-71.056393,Food access
206,Base Trip Records,Boston,2215,277 Babcock St # 1609,42.352847,-71.120986,Food access
208,Bazics Convenience,Boston,2210,1 Design Center Pl,42.343883,-71.034115,Food access
209,Beacon Hill Convenience Store,Boston,2114,55 Anderson St,42.359319,-71.067773,Food access
216,Berkeley Street Market,Boston,2116,56 Berkeley St,42.346399,-71.070933,Food access
239,Boston Mart,Boston,2108,42 Court St,42.359129,-71.059189,Food access
241,Boston Shawarma,Boston,2108,226 Washington St,42.358158,-71.057843,Food access
243,Boston Variety,Boston,2114,59 Causeway St,42.3644,-71.062893,Food access
283,Bull Market Deli,Boston,2109,Liberty Sq,42.359135,-71.055237,Food access
284,Bull Market Press Corp,Boston,2127,9 W Broadway # 415,42.34238,-71.057941,Food access
308,Cappy's Store,Boston,2115,90 Westland Ave,42.343882,-71.089765,Food access
317,Cashion's Quick Stop,Boston,2111,60 Temple Pl # 4,42.354968,-71.061427,Food access
386,Convenience Plus,Boston,2118,789 Harrison Ave,42.340851,-71.070838,Food access
412,Corner Store,Boston,2113,270 Hanover St,42.363817,-71.054684,Food access
439,Crossing Variety,Boston,2108,48 Winter St,42.355963,-71.062025,Food access
447,D & D Convenience Store,Boston,2108, ,42.357979,-71.062564,Food access
488,Delight Corner,Boston,2111,32 Oxford St,42.351522,-71.060226,Food access
489,Delights Corner,Boston,2111,34 Oxford St,42.351547,-71.060297,Food access
498,Dicks Lobby Shop,Boston,2222,10 Causeway St # 692,42.365165,-71.063096,Food access
505,Don Quijote Market,Boston,2118,1639 Washington St,42.340851,-71.070838,Food access
511,Downtown Convenience Two,Boston,2215,1100 Boylston St,42.346803,-71.088468,Food access
532,Eben Ezer Market,Boston,2128,22 Shelby St # 24,42.377292,-71.032514,Food access
560,Esi Inc Of Tennessee,Boston,2110,175 Federal St # 11,42.353678,-71.056361,Food access
572,Express Depot,Boston,2116,360b Columbus Ave,42.350812,-71.074581,Food access
599,Fenway Convenience,Boston,2215,76 Kilmarnock St,42.342507,-71.099234,Food access
610,Food Basket,Boston,2118,563 Columbus Ave # 1,42.341137,-71.081492,Food access
634,Gateway Newstand,Boston,2109,1 Faneuil Hall Market Pl,42.359735,-71.053586,Food access
635,Gateway Newstand,Boston,2116,8 Park Plz,42.351517,-71.069139,Food access
645,Giovanni's Market,Boston,2118,624 Columbus Ave,42.339277,-71.083194,Food access
752,J & J Convenience Store,Boston,2128,11 Meridian St,42.370551,-71.038751,Food access
754,J & J Discount Mini Mart,Boston,2127,131 W Broadway,42.340791,-71.054339,Food access
772,J Trip Karaoke Lounge,Boston,2109,189 State St,42.359144,-71.05271,Food access
789,Jen's Place,Boston,2116,10 Park Plz,42.351028,-71.069461,Food access
816,K & G 1 Stop,Boston,2201,25 Sudbury St 1st F L,42.361095,-71.057675,Food access
817,K & G1 Stop,Boston,2203,25 New Sudbury St,42.361392,-71.059249,Food access
825,Karen Food Market,Boston,2128,41 Bennington St,42.375359,-71.037315,Food access
853,LA Esperanza Market,Boston,2128,238 Meridian St,42.375813,-71.039175,Food access
866,Lasker's Variety,Boston,2116,67 Appleton St,42.345835,-71.072681,Food access
901,Los Paisanos Market LLC,Boston,2128,11 Meridian St,42.370551,-71.038751,Food access
946,Mario Market,Boston,2128,51 Cottage St,42.367108,-71.035677,Food access
959,Mass Food Market,Boston,2118,603 Massachusetts Ave,42.337117,-71.078145,Food access
968,Medina's Market Inc,Boston,2118,611 Tremont St,42.342887,-71.0741,Food access
1013,Monica's Mercato,Boston,2113,130 Salem St # 1,42.365094,-71.055592,Food access
1104,Oli's Market,Boston,2128,401 Saratoga St,42.379102,-71.029539,Food access
1111,One Stop Convenience,Boston,2118,664 Tremont St # 1,42.341362,-71.075795,Food access
1115,One Stop Mama Shop,Boston,2111,102 South St # 5,42.351058,-71.057122,Food access
1134,P & A Convenience Market Inc,Boston,2116,469 Columbus Ave,42.343304,-71.078526,Food access
1145,Pantry,Boston,2199,39 Dalton St,42.346573,-71.083844,Food access
1196,Poseidon Trident,Boston,2128,20 Trident St,42.385908,-71.010909,Food access
1197,Primo's Convenience Store,Boston,2114,24 Joy St,42.35927,-71.065187,Food access
1200,Priya Food Market,Boston,2128,399 Saratoga St,42.378975,-71.029615,Food access
1214,Quick Mart,Boston,2128,353 Chelsea St,42.378276,-71.028734,Food access
1296,Ruiz Market Boston,Boston,2128,14 Breed St,42.387188,-71.00681,Food access
1311,S K Convenience Stores,Boston,2116,100 Huntington Ave,42.347042,-71.077828,Food access
1316,Salem Convenience,Boston,2113,96 Salem St,42.363949,-71.055696,Food access
1347,Seaport Convenience,Boston,2210,451 D St,42.345197,-71.04198,Food access
1361,Shoebox Smokers Club Cnvnnc,Boston,2111,449 Washington St,42.355329,-71.060983,Food access
1365,Shop MFI Market,Boston,2113,170 Salem St # 4,42.366231,-71.054967,Food access
1383,Snack N' Play,Boston,2114,19 Staniford St,42.362201,-71.063744,Food access
1440,Store 24,Boston,2115,281 Huntington Ave # B,42.341988,-71.086462,Food access
1450,Sulgrave News,Boston,2108,6 Milk St,42.356861,-71.058376,Food access
1455,Sumner Market Inc,Boston,2128,345 Sumner St,42.366838,-71.035499,Food access
1494,Tedeschi Food Shops,Boston,2114,126 Cambridge St,42.361233,-71.065706,Food access
1495,Tedeschi Food Shops,Boston,2115,281 Huntington Ave,42.341988,-71.086462,Food access
1496,Tedeschi Food Shops,Boston,2215,542 Commonwealth Ave,42.348735,-71.096368,Food access
1529,Tienda San Antonio,Boston,2128,257 Princeton St,42.379571,-71.030009,Food access
1531,To Logan Express Way Inc,Boston,2115,5 Orient Express Way,42.343597,-71.090024,Food access
1532,Tobacco Treasurers,Boston,2210,200 Seaport Blvd,42.351773,-71.040336,Food access
1549,Towne Convenience,Boston,2116,40 Boylston St,42.352158,-71.063861,Food access
1572,Two Brothers Market,Boston,2128,51 Trenton St,42.378353,-71.037662,Food access
1576,Underground T,Boston,2116,261 Tremont St,42.350468,-71.065169,Food access
1594,Value 2000,Boston,2111,507 Washington St,42.354284,-71.061827,Food access
1602,Venice Convenient Inc,Boston,2113,38 Cooper St,42.364388,-71.057125,Food access
1617,Visham & Son,Boston,2111,449 Washington St,42.355329,-71.060983,Food access
1623,Wag-A-Bag,Boston,2215,70 Brookline Ave,42.347237,-71.098414,Food access
1639,West Seventh Mini Market,Boston,2127,51 W 7th St,42.337052,-71.055401,Food access
1677,Your Convenient,Boston,2111,62 Essex St # 74,42.35179,-71.061176,Food access
1683,7-Eleven,Boston,2108,10 Milk St,42.356883,-71.057975,Food access
1684,7-Eleven,Boston,2215,117 Jersey St # 121,42.342757,-71.09701,Food access
1685,7-Eleven,Boston,2210,200 Seaport Blvd # 3,42.351773,-71.040336,Food access
1686,7-Eleven,Boston,2116,252 W Newton St # 1,42.344733,-71.081216,Food access
1687,7-Eleven,Boston,2116,261 Dartmouth St,42.350294,-71.077631,Food access
1688,7-Eleven,Boston,2108,3 Center Plz # 101a,42.359073,-71.060123,Food access
1689,7-Eleven,Boston,2215,532 Commonwealth Ave,42.348523,-71.096348,Food access
1690,7-Eleven,Boston,2116,55 Berkeley St,42.346475,-71.070267,Food access
1691,7-Eleven,Boston,2110,70 E India Row,42.358582,-71.050516,Food access
1727,Campus Convenience,Boston,2118,700 Albany St,42.335484,-71.070214,Food access
1740,City Convenience,Boston,2116,130 Dartmouth St,42.346393,-71.075844,Food access
1751,Cumberland Farms,Boston,2118,801 Massachusetts Ave,42.333104,-71.073002,Food access
1821,First Tennessee Capital Mrkts,Boston,2110,99 Summer St,42.353558,-71.05893,Food access
1826,Golden Goose,Boston,2109,179 Commercial St,42.362813,-71.051821,Food access
1852,Neptune Convenience & Liquor,Boston,2128,3 Neptune Rd,42.37845,-71.022851,Food access
1871,Roxbury Mobil,Boston,2118,85 Southampton St,42.331916,-71.070384,Food access
1882,Speedway,Boston,2127,151 Old Colony Ave,42.334534,-71.05545,Food access
1883,Speedway,Boston,2125,874 Dorchester Ave,42.321182,-71.056553,Food access
1924,Sulgrave Inc,Boston,2109,60 State St,42.359266,-71.056434,Food access
1926,Symphony Market II,Boston,2115,291 Huntington Ave,42.341663,-71.086449,Food access
1928,Tedeschi Food Shops,Boston,2114,122 Cambridge St,42.361099,-71.063715,Food access
1929,Tedeschi Food Shops,Boston,2115,141 Massachusetts Ave,42.346805,-71.087722,Food access
1930,Tedeschi Food Shops,Boston,2114,50 Staniford St,42.36204,-71.063972,Food access
1931,Tedeschi Food Shops,Boston,2127,566 Dorchester Ave,42.330301,-71.056746,Food access
1982,660 Corp,Boston,2215,775 Commonwealth Ave,42.35051,-71.109657,Food access
1990,7-Eleven,Boston,2109,103 State St,42.358962,-71.055102,Food access
1991,7-Eleven,Boston,2128,120 Byron St,42.383945,-71.016262,Food access
1992,7-Eleven,Boston,2108,125 Tremont St,42.356403,-71.061733,Food access
1993,7-Eleven,Boston,2118,1306 Washington St,42.340851,-71.070838,Food access
1994,7-Eleven,Boston,2118,1747 Washington St,42.336782,-71.077008,Food access
1995,7-Eleven,Boston,2114,250 Cambridge St # 3,42.360888,-71.067475,Food access
1996,7-Eleven,Boston,2113,342 Hanover St,42.364947,-71.053561,Food access
1997,7-Eleven,Boston,2113,464 Hanover St # 17,42.367042,-71.052728,Food access
1998,7-Eleven,Boston,2127,473 W Broadway,42.335531,-71.046079,Food access
1999,7-Eleven,Boston,2110,50 Summer St,42.354672,-71.059025,Food access
2000,7-Eleven,Boston,2215,508 Park Dr,42.34764,-71.105811,Food access
2001,7-Eleven,Boston,2127,673 E Broadway # 1,42.335447,-71.037501,Food access
2002,7-Eleven,Boston,2115,722 Huntington Ave,42.334138,-71.104339,Food access
2003,7-Eleven,Boston,2215,872 Commonwealth Ave,42.3508,-71.114346,Food access
2004,7-Eleven,Boston,2114,91 Causeway St # 99,42.364834,-71.062052,Food access
2137,Anthony Market,Boston,2128,407 Meridian St,42.380376,-71.038999,Food access
2154,Boston Bottle,Boston,2109,372 Commercial St,42.360568,-71.053869,Food access
2188,Calderon Market,Boston,2128,152 Sumner St,42.369615,-71.041029,Food access
2217,City Convenience,Boston,2108,23 Beacon St,42.357979,-71.062564,Food access
2218,City Convenience,Boston,2215,541 Commonwealth Ave,42.349216,-71.097042,Food access
2219,City Convenience,Boston,2115,86 Massachusetts Ave,42.348733,-71.088118,Food access
2222,City Mini Mart,Boston,2108,226 Washington St,42.358158,-71.057843,Food access
2226,College Convenience,Boston,2115,281 Huntington Ave,42.341988,-71.086462,Food access
2243,Costa's Convenience Store,Boston,2128,184 Bremen St,42.373091,-71.034307,Food access
2271,Cumberland Farms,Boston,2127,628 E 5th St,42.334164,-71.0355,Food access
2433,East Boston Variety,Boston,2128,3 Gladstone St,42.389113,-70.999524,Food access
2473,Gateway Newsstand,Boston,2215,401 Park Dr # 203,42.343754,-71.103148,Food access
2494,Hemenway Variety,Boston,2115,95 Westland Ave,42.344042,-71.090138,Food access
2529,Island Store,Boston,2127,735 E 6th St,42.333021,-71.031339,Food access
2536,J & W One Lewis Wharf,Boston,2110,1 Lewis Wharf,42.363723,-71.051033,Food access
2562,Kushtia Inc,Boston,2118,1813 Washington St,42.335839,-71.077901,Food access
2656,Neptune Launderette,Boston,2128,944 Bennington St,42.386146,-71.009636,Food access
2672,O'Connell's Convenience Plus,Boston,2118,40 Worcester Sq,42.336288,-71.073795,Food access
2737,Patriot News Inc,Boston,2111,655 Atlantic Ave,42.35179,-71.061176,Food access
2759,Quality Mart,Boston,2115,21 Massachusetts Ave,42.350696,-71.089476,Food access
2831,Saratoga Convenience,Boston,2128,655 Saratoga St,42.382249,-71.020796,Food access
2912,Store 24,Boston,2116,717 Boylston St,42.349651,-71.080095,Food access
2915,Store 24 Inc,Boston,2116,363 Tremont St,42.348049,-71.067988,Food access
2951,Tedeschi Food Shops,Boston,2128,14 Maverick Sq,42.369407,-71.039531,Food access
2952,Tedeschi Food Shops,Boston,2127,405 W Broadway,42.336953,-71.048061,Food access
2953,Tedeschi Food Shops,Boston,2127,555 E Broadway,42.33534,-71.04196,Food access
2954,Tedeschi Food Shops,Boston,2116,717 Boylston St,42.349651,-71.080095,Food access
3063,Temple Place Market,Boston,2111,55 Temple Pl,42.35483,-71.061788,Food access
3076,Val's Place,Boston,2222,10 Causeway St,42.365165,-71.063096,Food access
3101,White Hen,Boston,2113,342 Hanover St,42.364947,-71.053561,Food access
3124,Yawkey Way Store,Boston,2215,19 Yawkey Way,42.346089,-71.098892,Food access
3133,City Convenience,Boston,2215,702 Commonwealth Ave,42.349727,-71.105355,Food access
3134,City Convenience,Boston,2215,775 Commonwealth Ave,42.35051,-71.109657,Food access
3149,Tedeschi Food Shops,Boston,2109,177 State St # A,42.35937,-71.053394,Food access
3167,CVS Pharmacy,Boston,2111,151 Tremont St # 1,42.354515,-71.063698,Food access
3168,CVS Pharmacy,Boston,2108,263 Washington St,42.357792,-71.058093,Food access
3169,CVS Pharmacy,Boston,2215,518 Commonwealth Ave,42.348505,-71.095938,Food access
3197,CVS/Pharmacy,Boston,2114,191 Cambridge St,42.362092,-71.065915,Food access
3198,CVS/Pharmacy,Boston,2113,218 Hanover St,42.363064,-71.055489,Food access
3199,CVS/Pharmacy,Boston,2108,265 Washington St,42.357979,-71.062564,Food access
3200,CVS/Pharmacy,Boston,2116,285 Columbus Ave,42.347087,-71.07409,Food access
3201,CVS/Pharmacy,Boston,2108,340 Washington St,42.356569,-71.058746,Food access
3202,CVS/Pharmacy,Boston,2115,350 Longwood Ave # 19,42.338871,-71.107274,Food access
3203,CVS/Pharmacy,Boston,2118,874 Harrison Ave,42.333822,-71.076315,Food access
3355,Rite Aid,Boston,2114,100 Cambridge St # 102,42.359957,-71.062137,Food access
3356,Rite Aid,Boston,2128,971 Bennington St,42.386212,-71.007539,Food access
3427,Walgreens,Boston,2116,21 Stanhope St # 23,42.348602,-71.072893,Food access
3456,Brooks Pharmacy,Boston,2110,11 Pearl St,42.356372,-71.054279,Food access
3468,CVS,Boston,2111,151 Tremont St # 1,42.354515,-71.063698,Food access
3473,Cvs Caremark-Retail,Boston,2116,98 Chandler St,42.346259,-71.072883,Food access
3474,Cvs Corp,Boston,2116,25 Holyoke St # 5,42.345026,-71.077989,Food access
3499,Cvs/Caremark Corp,Boston,2118,4a Milford St,42.343797,-71.069218,Food access
3509,CVS/Pharmacy,Boston,2114,155 Charles St,42.360607,-71.070837,Food access
3576,Walgreens,Boston,2116,841 Boylston St,42.348901,-71.082596,Food access
3608,CVS/Pharmacy,Boston,2114,101 Canal St,42.365167,-71.060568,Food access
3609,CVS/Pharmacy,Boston,2215,1249 Boylston St # 1,42.345432,-71.095775,Food access
3610,CVS/Pharmacy,Boston,2108,2 Center Plz,42.359894,-71.060199,Food access
3611,CVS/Pharmacy,Boston,2115,231 Massachusetts Ave,42.344569,-71.08675,Food access
3612,CVS/Pharmacy,Boston,2116,240 Newbury St # 240,42.349498,-71.08184,Food access
3613,CVS/Pharmacy,Boston,2108,29 Winter St,42.356134,-71.06128,Food access
3614,CVS/Pharmacy,Boston,2115,300 Longwood Ave,42.337187,-71.105324,Food access
3615,CVS/Pharmacy,Boston,2108,333 Washington St,42.356916,-71.059193,Food access
3616,CVS/Pharmacy,Boston,2116,400 Tremont St,42.347146,-71.068279,Food access
3617,CVS/Pharmacy,Boston,2127,423 W Broadway # 300,42.336605,-71.04752,Food access
3618,CVS/Pharmacy,Boston,2110,55 Summer St # B,42.354202,-71.059279,Food access
3619,CVS/Pharmacy,Boston,2116,587 Boylston St,42.350536,-71.076993,Food access
3620,CVS/Pharmacy,Boston,2111,631 Washington St,42.352369,-71.062659,Food access
3621,CVS/Pharmacy,Boston,2111,700 Atlantic Ave,42.351171,-71.056125,Food access
3622,CVS/Pharmacy,Boston,2109,81 Milk St,42.356696,-71.057308,Food access
3623,CVS/Pharmacy,Boston,2215,900 Commonwealth Ave # 8376,42.35051,-71.116238,Food access
3840,Rite Aid,Boston,2215,1295 Boylston St # 120,42.345095,-71.097766,Food access
3841,Rite Aid,Boston,2127,710 E Broadway,42.336156,-71.036509,Food access
3920,Walgreens,Boston,2128,1 Central Sq,42.374277,-71.038664,Food access
3921,Walgreens,Boston,2136,1035 Truman Hwy,42.242154,-71.127302,Food access
3922,Walgreens,Boston,2118,1603 Washington St,42.338253,-71.074961,Food access
3923,Walgreens,Boston,2108,24 School St,42.357506,-71.059129,Food access
3924,Walgreens,Boston,2113,332 Hanover St # 100,42.364427,-71.053872,Food access
3925,Walgreens,Boston,2215,429 Brookline Ave,42.338454,-71.108158,Food access
3926,Walgreens,Boston,2111,620 Washington St,42.352615,-71.062516,Food access
3927,Walgreens,Boston,2110,70 Summer St,42.354067,-71.058525,Food access
3928,Walgreens,Boston,2119,75 Amory St # 100,42.320618,-71.099529,Food access
4070,Alhoda Market,Boston,2109,114 Blackstone St,42.359135,-71.055237,Food access
4087,Butcher Block Meat Co,Boston,2118,14 Food Mart Rd,42.337319,-71.062839,Food access
4094,Casablanca Meat Market,Boston,2109,116 Blackstone St,42.359135,-71.055237,Food access
4105,Di Paolo & Rossi Meat Market,Boston,2113,56 Salem St,42.363193,-71.056201,Food access
4109,El Paissa Butchershop,Boston,2128,1010 Bennington St,42.386951,-71.006619,Food access
4117,Hajar Market,Boston,2109,116 Blackstone St,42.359135,-71.055237,Food access
4130,Kinnealey TF & Co,Boston,2118,1000 Massachusetts Ave,42.328372,-71.067614,Food access
4134,Lambert Beef Co,Boston,2118,49 Food Mart Rd,42.340851,-71.070838,Food access
4148,Meat & Fish Market,Boston,2109,118 Blackstone St # B,42.359135,-71.055237,Food access
4157,New England Meat Co,Boston,2110,267 Kentlands Blvd # 700,42.356372,-71.054279,Food access
4158,New Meat Market,Boston,2109,94 Blackstone St,42.361487,-71.056184,Food access
4159,North End Fish Market,Boston,2113,99 Salem St # 1,42.363909,-71.055489,Food access
4171,Roy's Cold Cuts,Boston,2128,198 Marion St,42.375525,-71.034673,Food access
4177,Sulmona Meat Market,Boston,2113,32a Parmenter St,42.364054,-71.055356,Food access
4291,Ming Kee,Boston,2111,54 Kneeland St,42.350656,-71.061137,Food access
4297,New Boston Meat,Boston,2118,81 Newmarket Sq,42.329182,-71.066826,Food access
4302,One A Corp,Boston,2128,9 Meridian St,42.370491,-71.038779,Food access
4315,Red's Best,Boston,2210,212 Northern Ave,42.350476,-71.038265,Food access
4331,Wings Enterprises Inc,Boston,2111,48 Beach St,42.35155,-71.060794,Food access
4334,Boston & Maine Fish Co,Boston,2109,1 Faneuil Hall Market Pl,42.359735,-71.053586,Food access
4337,Legal Sea Foods,Boston,2116,100 Huntington Ave # 77,42.347042,-71.077828,Food access
4342,18 Seafood Market,Boston,2111,18 Hudson St,42.350508,-71.059956,Food access
4379,Buy New England Lobsters,Boston,2127,696 E 1st St,42.335475,-71.043154,Food access
4385,Cape Cod Shellfish & Seafood,Boston,2210,29 Fish Pier St W # 31,42.349242,-71.044476,Food access
4397,Caviar Shops,Boston,2210,207 A St,42.349242,-71.044476,Food access
4419,East Boston Oysters,Boston,2210,9 Fish Pier St E,42.349369,-71.039276,Food access
4430,Eternal Star Seafood Inc,Boston,2118,649 Harrison Ave # 138,42.339458,-71.069583,Food access
4442,Gloucester Seafood Procng Inc,Boston,2109,1 Post Office Sq,42.356937,-71.05585,Food access
4444,Golden Banks Seafood Inc,Boston,2210,1 Fish Pier Rd,42.349242,-71.044476,Food access
4446,Great Eastern Seafood Inc,Boston,2118,44 Newmarket Sq,42.328582,-71.065768,Food access
4456,Huntington Seafood,Boston,2115,764 Huntington Ave,42.333328,-71.105974,Food access
4457,International Lobster & Maguro,Boston,2118,22 Food Mart Rd,42.337367,-71.062863,Food access
4460,James Hook & Co,Boston,2110,440 Atlantic Ave,42.356372,-71.054279,Food access
4475,Legal Seafood,Boston,2210,6 Fid Kennedy Ave,42.349242,-71.044476,Food access
4480,Legeal Sea Foods,Boston,2116,35 Columbus Ave,42.350812,-71.074581,Food access
4550,Polar Seafood Corp,Boston,2210,145 Northern Ave # 3,42.349242,-71.044476,Food access
4551,Portside Seafood,Boston,2210,24 Fish Pier St W,42.349822,-71.03907,Food access
4557,Red's Best,Boston,2210,13 Fish Pier,42.349242,-71.044476,Food access
4558,Reds Best,Boston,2109,136 Blackstone St,42.36216,-71.057495,Food access
4581,Seafood Specialties,Boston,2210,25 Fish Pier,42.349242,-71.044476,Food access
4588,Skipjack's Seafood E,Boston,2116,Clarendon & Saint James,42.350812,-71.074581,Food access
4594,Staemis Seafood,Boston,2210,7 Channel St,42.345024,-71.037095,Food access
4596,Stavis Seafood,Boston,2210,37 Fish Pier,42.349242,-71.044476,Food access
4597,Stavis Seafood,Boston,2210,660 Summer St,42.345524,-71.037939,Food access
4600,Stranded Catfish Inc,Boston,2127,922 E Broadway # 1,42.335963,-71.027334,Food access
4602,Sunny's Seafood Inc,Boston,2210,Bay One Boston Fish Pier,42.349242,-71.044476,Food access
4611,Twin Dragon Seafood Inc,Boston,2111,10a Tyler St,42.350978,-71.060463,Food access
4614,Victoria Seafood Inc,Boston,2215,1029 Commonwealth Ave,42.352273,-71.121902,Food access
4623,Boston Lobsters,Boston,2163,65 N Harvard St,42.367265,-71.1248,Food access
4628,Caviar,Boston,2111,745 Atlantic Ave # 434,42.350309,-71.057103,Food access
4629,Caviar Boston,Boston,2215,921 Beacon St # 1,42.34593,-71.106372,Food access
4633,Commercial Lobster Co,Boston,2110,185 Franklin St,42.3554,-71.054818,Food access
4637,James Hook & Co,Boston,2210,15 Northern Ave,42.352939,-71.046009,Food access
4647,No Name Restaurant,Boston,2109, ,42.359135,-71.055237,Food access
4654,Sousa Lobster Co Inc,Boston,2210,16 Fish Pier,42.349559,-71.039264,Food access
4673,Boston Seafood,Boston,2210,8 Fid Kennedy Ave,42.349242,-71.044476,Food access
4674,Bramante Seafood,Boston,2210,2 Fish Pier St W,42.349171,-71.03962,Food access
4699,East Bay Seafood,Boston,2210,8 Seafood Way # 1b,42.349045,-71.031157,Food access
4730,Martinez Seafood Inc,Boston,2210,212 Northern Ave,42.350476,-71.038265,Food access
4755,Seafood USA Coast,Boston,2109,15 Broad St # 415,42.358721,-71.054799,Food access
4782,A Dozen Eggs,Boston,2116,553 Tremont St,42.343995,-71.071665,Food access
4823,Cheese Shop,Boston,2113,20 Fleet St,42.3647,-71.052849,Food access
4850,Fortune Market Inc,Boston,2111,40 Harrison Ave,42.351664,-71.060968,Food access
4853,Fresh Eggs Inc,Boston,2116,58 Clarendon St,42.346442,-71.073332,Food access
4906,Saga Dairy Inc,Boston,2118,30 Union Park St # 403,42.341883,-71.070058,Food access
4944,G & S Group LLC,Boston,2109,1 Faneuil Hall Market Pl,42.359735,-71.053586,Food access
4949,Gourmet Boutique,Boston,2116,10 Huntington Ave,42.348298,-71.077612,Food access
4984,Beacon Hill Gourmet,Boston,2114,65 Charles St,42.358114,-71.070184,Food access
5006,Chinatown Hit,Boston,2111,27 Harrison Ave,42.351754,-71.061463,Food access
5034,Giorgiana's,Boston,2116,532 Tremont St,42.344493,-71.070534,Food access
5041,Gourmet Exchange,Boston,2118,70 Newmarket Sq,42.328799,-71.066936,Food access
5042,Gourmet Foods Of America Inc,Boston,2109,Faneuil Hall Marketplace,42.359135,-71.055237,Food access
5045,Gourmet Inc,Boston,2111,70 Tyler St,42.349291,-71.061259,Food access
5047,Gourmet Products,Boston,2118,35 Wareham St,42.339373,-71.068101,Food access
5050,Gypsy Kitchen,Boston,2108, ,42.357979,-71.062564,Food access
5052,Health Resources,Boston,2222,Jfk Federal Bldg # 1826,42.364973,-71.062334,Food access
5064,Lankagems Inc,Boston,2116,85 Newbury St,42.351918,-71.074963,Food access
5068,Lovely Fare,Boston,2113,30 Prince St,42.364487,-71.05444,Food access
5085,Silver Screen Gourmet,Boston,2109,3 Lewis St # 1,42.363276,-71.051876,Food access
5086,Sio Kam Lung Inc,Boston,2111,65 Harrison Ave,42.351316,-71.061313,Food access
5089,South End Gourmet Shop,Boston,2116,74 Appleton St,42.345583,-71.072507,Food access
5098,Whittard Of Chelsea,Boston,2109,1 Faneuil Hall Sq,42.360041,-71.055744,Food access
5099,Whittard Of Chelsea,Boston,2116,170 Newbury St,42.350336,-71.07882,Food access
5129,A & P Supermarket,Boston,2115,77 Avenue Louis Pasteur,42.338414,-71.103178,Food access
5145,Abruzzese Meat Market,Boston,2113,94 Salem St,42.363915,-71.055715,Food access
5148,Ace Store,Boston,2116,110 Stuart St,42.351007,-71.065166,Food access
5156,Adam Market,Boston,2109,116 Blackstone St,42.359135,-71.055237,Food access
5161,Aguadilla Market,Boston,2118,664 Tremont St # A,42.341362,-71.075795,Food access
5195,Alvaro Market,Boston,2128,51 Cottage St,42.367108,-71.035677,Food access
5244,Atlantic To Hudson Inc,Boston,2111,18 Hudson St,42.350508,-71.059956,Food access
5273,Bella's Market,Boston,2128,73 Maverick Sq,42.369842,-71.038558,Food access
5275,Bello's Market,Boston,2128,75 Maverick Sq,42.370016,-71.03864,Food access
5285,Billy's Market,Boston,2114,31 Phillips St,42.361233,-71.065706,Food access
5296,Bob's Grocery Store,Boston,2113,160 Endicott St,42.365445,-71.057562,Food access
5313,Boston Food Imports Inc,Boston,2128,1024 Bennington St,42.387166,-71.006,Food access
5346,Brothers Mini Market,Boston,2118,802 Tremont St,42.338492,-71.081337,Food access
5358,C Mart 2 Supermarket,Boston,2111,109 Lincoln St,42.351628,-71.058504,Food access
5359,C Mart Supermarket,Boston,2111,109 Lincoln St,42.351628,-71.058504,Food access
5362,Calderon Market,Boston,2128,140 Princeton St,42.378219,-71.03447,Food access
5372,Canal Street Market,Boston,2114,80 Canal St,42.363845,-71.0597,Food access
5381,Carmella's Market,Boston,2128,86 Cottage St,42.367892,-71.035296,Food access
5383,Casa Cuong,Boston,2118,629 Tremont St # A,42.342417,-71.074616,Food access
5402,Chanh Hung Seafood Market,Boston,2111,659 Washington St,42.351834,-71.063212,Food access
5408,Cherry Mart,Boston,2115,349 Newbury St # B,42.348554,-71.087255,Food access
5414,Christy's Markets Inc,Boston,2116,107 Stuart St,42.350812,-71.074581,Food access
5415,Chung Wah Hong Co,Boston,2111,55 Beach St,42.351339,-71.060584,Food access
5437,Commonwealth Market Inc,Boston,2215,1090 Commonwealth Ave,42.35196,-71.12401,Food access
5522,Delicious Market,Boston,2128,6 Brooks St,42.37541,-71.0317,Food access
5523,Delis Food Market,Boston,2128,353 Meridian St,42.378673,-71.039132,Food access
5525,Deluca's Market,Boston,2108,17 Branch St,42.356755,-71.069216,Food access
5538,Diana's Market,Boston,2128,170 Cottage St,42.370173,-71.032836,Food access
5558,"Duey, Chong",Boston,2111,10 Oxford Pl,42.351713,-71.060771,Food access
5562,E V A Plus Food Corp,Boston,2128,321 Meridian St # 3,42.377768,-71.038991,Food access
5576,El Consumo Market,Boston,2128,60 Maverick St,42.371196,-71.040954,Food access
5589,Elite Foods Co,Boston,2128,54 W Eagle St,42.381522,-71.037512,Food access
5594,Elvalle De LA Sultana-Market,Boston,2128,121 Bennington St,42.376411,-71.034695,Food access
5609,Estrellita Food Market,Boston,2128,290 Meridian St # 1,42.37681,-71.039423,Food access
5689,Foods Research,Boston,2127,716 E 3rd St,42.33671,-71.03101,Food access
5704,Fresh Foods,Boston,2109,88 Blackstone St # B,42.361435,-71.056393,Food access
5708,Friendly Grocery,Boston,2128,42 Maverick St,42.371321,-71.04155,Food access
5717,G & V Symphony Market,Boston,2215,1130 Boylston St,42.346884,-71.089021,Food access
5719,Garden Halal Meat,Boston,2109,96 Blackstone St,42.361499,-71.056197,Food access
5728,George Greer Foods,Boston,2127,371 Dorchester Ave # 140,42.335096,-71.059149,Food access
5738,Going Bananas,Boston,2113,64 Salem St # 1,42.363392,-71.056117,Food access
5756,Goon Shee Assoc Inc,Boston,2111,10 Oxford Pl,42.351713,-71.060771,Food access
5777,H-E-B Foods Co,Boston,2210,415 Summer St,42.347115,-71.044563,Food access
5788,Hannaford Bros Co,Boston,2116,20 Park Plz # 833,42.351412,-71.069093,Food access
5798,Hay Market Intl Food Co,Boston,2109,88 Blackstone St,42.361435,-71.056393,Food access
5814,Hollywood Market,Boston,2110, ,42.356372,-71.054279,Food access
5826,Huntington Markets,Boston,2115,818 Huntington Ave,42.33321,-71.108433,Food access
5880,Jim's Variety,Boston,2127,256 W 5th St,42.335512,-71.049247,Food access
5914,K & 8th Street Market,Boston,2127,362 K St,42.33135,-71.037068,Food access
5921,Karen Market,Boston,2128,41 Bennington St,42.375359,-71.037315,Food access
5931,Kim's Market,Boston,2127,305 W Broadway,42.338619,-71.050637,Food access
5957,LA Esquina Supermarket,Boston,2128,184 Bremen St,42.373091,-71.034307,Food access
5982,Lambert's Marketplace,Boston,2118,682 Tremont St,42.340992,-71.076671,Food access
6004,Lil Caffe Italy LLC,Boston,2113,178 Salem St,42.366517,-71.054783,Food access
6034,Lowe's Pay N Save,Boston,2222,10 Causeway St,42.365165,-71.063096,Food access
6039,Luchos Market,Boston,2128,42 Maverick St,42.371321,-71.04155,Food access
6044,Lun Fat Produce,Boston,2111,227 Harrison Ave,42.347682,-71.062945,Food access
6075,Mario's Meat Market,Boston,2128,14 Nancia St,42.38259,-70.999033,Food access
6077,Mark A Albertson,Boston,2199,790 Boylston St,42.348195,-71.081708,Food access
6092,Market Place Inc,Boston,2199,800 Boylston St,42.348804,-71.081983,Food access
6093,Market Platform Office LLC,Boston,2109,111 Devonshire St # 9,42.356991,-71.057355,Food access
6097,Market Street Group,Boston,2108,1 Boston Pl,42.358517,-71.058374,Food access
6113,Meat & Fish Market,Boston,2109,88 Blackstone St,42.361435,-71.056393,Food access
6139,Mi-Tierra Market,Boston,2128,71 Meridian St,42.371962,-71.038795,Food access
6171,Mondonguito Grocery Store,Boston,2119,219 Dudley St,42.328457,-71.080652,Food access
6193,N C Market Corp,Boston,2127,305 W Broadway,42.338619,-71.050637,Food access
6205,Natural Snax,Boston,2113,5 Bakers Aly # 6,42.271196,-71.069095,Food access
6220,New Boston Food Market,Boston,2118,31 Food Mart Rd,42.337439,-71.062786,Food access
6245,New World Multi Svc,Boston,2128,407 Chelsea St # 1,42.379813,-71.026939,Food access
6254,Nonas Market,Boston,2113,292 North St # 1,42.364054,-71.051974,Food access
6262,Nutibara Envios,Boston,2128,532 Bennington St,42.382214,-71.020054,Food access
6266,Oh Naturale,Boston,2113,28 Parmenter St,42.363923,-71.055339,Food access
6296,Pacific Supermarket,Boston,2111,15 Beach St,42.351417,-71.062173,Food access
6312,Payless Foods,Boston,2114,139 Charles St,42.360205,-71.070571,Food access
6327,Philips Market,Boston,2108,24 Tremont St,42.358526,-71.059988,Food access
6362,Prince Pantry,Boston,2113,101 Prince St,42.365919,-71.056393,Food access
6391,Qwok Ngon Supermarket,Boston,2111,65 Beach St,42.351115,-71.060109,Food access
6400,Real Food,Boston,2215,14 Medfield St # 3,42.345346,-71.105266,Food access
6403,Refreshed Market,Boston,2121,196 Quincy St,42.313019,-71.07497,Food access
6416,Roche Bros,Boston,2110,8 Summer St # 1,42.355353,-71.060278,Food access
6430,Rosauers Supermarkets Inc,Boston,2109,120 Water St,42.358298,-71.054665,Food access
6442,Rupal Corp,Boston,2127,112 W 7th St,42.336154,-71.053497,Food access
6457,Sagarino's,Boston,2111,106 South St,42.351062,-71.057334,Food access
6485,Sava's Market,Boston,2128,150 Bennington St,42.376989,-71.033629,Food access
6497,See Sun Co,Boston,2111,25 Harrison Ave,42.351929,-71.061284,Food access
6531,SJR Foods,Boston,2114,32 Emerson Pl,42.361233,-71.065706,Food access
6545,South End Open Market,Boston,2118,500 540 & 450 Harrison Ave,42.340851,-71.070838,Food access
6571,Station Grocery,Boston,2128,9 Maverick Sq,42.368929,-71.039245,Food access
6576,Stop & Shop,Boston,2128,365 Chelsea St,42.37849,-71.028432,Food access
6595,Sulmona Meat Mkt,Boston,2113,32 Parmenter St # A,42.363993,-71.055452,Food access
6596,Summer Market,Boston,2110,85 Summer St,42.353816,-71.058354,Food access
6606,Super Eighty Eight Market,Boston,2215,1095 Commonwealth Ave,42.352259,-71.124298,Food access
6650,Tetco Stores Inc,Boston,2210,311 Summer St,42.349515,-71.04903,Food access
6654,Thompson Market,Boston,2116,283 Tremont St,42.349781,-71.065541,Food access
6655,Thompson Market,Boston,2128,44 Brooks St,42.376055,-71.032676,Food access
6678,Tremont Market Place & Deli,Boston,2118,682 Tremont St,42.340992,-71.076671,Food access
6694,Two Brothers Market,Boston,2128,75 Marion St,42.378322,-71.037656,Food access
6726,Viet Ho Mkt Co,Boston,2111,15 Beach St,42.351417,-71.062173,Food access
6727,Villa Victoria Market,Boston,2118,65 West Newton St,42.340327,-71.074864,Food access
6734,Villas Market,Boston,2128,152 Sumner St,42.369615,-71.041029,Food access
6735,Vinni's Mini Market,Boston,2128,3 Gladstone St,42.389113,-70.999524,Food access
6762,Westland Market,Boston,2115,56 Westland Ave,42.34349,-71.088633,Food access
6766,White Hen Pantry,Boston,2114,250 Cambridge St # 3,42.360888,-71.067475,Food access
6770,White Hen Pantry Inc,Boston,2110,101 Arch St,42.354954,-71.059085,Food access
6807,Yes Yes Supermarket,Boston,2118,411 Shawmut Ave # 7,42.340406,-71.073886,Food access
6820,7-Eleven,Boston,2215,425 Brookline Ave,42.338338,-71.10797,Food access
6821,7-Eleven,Boston,2116,8 Park Plz # 6,42.351517,-71.069139,Food access
6828,A & R Food,Boston,2109,5 Post Office Sq,42.357173,-71.057088,Food access
6834,ABC Foods,Boston,2118,18 Newmarket Sq,42.32975,-71.064803,Food access
6841,Advanced Functional Foods Intl,Boston,2110,87 Wendell St,42.356975,-71.052511,Food access
6894,Bani Market,Boston,2128,353 Meridian St,42.378673,-71.039132,Food access
6904,Beacon Hill,Boston,2114,65 Charles St,42.358114,-71.070184,Food access
6905,Beacon Hill Market,Boston,2114,55 Anderson St,42.359319,-71.067773,Food access
6910,Beni's Restaurant,Boston,2128,145 Meridian St,42.373813,-71.039004,Food access
6917,Beyenes Food Basket,Boston,2114,1 Congress St,42.36277,-71.05849,Food access
6919,Biena Foods,Boston,2112,PO Box 121178,42.357582,-71.05763,Food access
6936,Boston Red Dogs,Boston,2108,280 Washington St,42.357135,-71.057896,Food access
6971,Campus Convenience,Boston,2215,275 Babcock St,42.352774,-71.120999,Food access
6975,Captain Jack's Wicket Fine Fds,Boston,2113,11 Fleet St # 7,42.364547,-71.054367,Food access
6990,Charles St Market,Boston,2114,66 Charles St,42.357576,-71.07045,Food access
6997,Cheng Kwong Seafood Market,Boston,2111,73 Essex St # 79,42.352333,-71.060445,Food access
7010,City Fresh Foods,Boston,2114,28 Bowdoin St,42.361233,-71.065706,Food access
7014,Clear Edge Foods Inc,Boston,2118,88 Worcester St,42.339551,-71.078435,Food access
7019,Colleen Bawn Fine Foods,Boston,2109,1 Faneuil Hall Sq,42.360041,-71.055744,Food access
7026,Condor Market Inc,Boston,2128,655 Saratoga St,42.382249,-71.020796,Food access
7027,Consumer Market Corp,Boston,2128,60 Maverick St,42.371196,-71.040954,Food access
7077,Dimenstional Food Corp,Boston,2109,8 Faneuil Hall Sq,42.359135,-71.055237,Food access
7101,East Broadway Market,Boston,2127,869 E Broadway,42.335686,-71.029285,Food access
7133,Fame Food Management,Boston,2222,10 Causeway St,42.365165,-71.063096,Food access
7135,Family Market,Boston,2127,334 E 8th St,42.331288,-71.047679,Food access
7146,Fiesta Market,Boston,2128,178 Bennington St,42.377394,-71.032671,Food access
7170,Foodie,Boston,2127,230 W Broadway,42.339831,-71.051875,Food access
7214,Golden Goose Office,Boston,2109,120 Fulton St,42.363175,-71.052493,Food access
7222,Goose Valley Natural Foods LLC,Boston,2116,399 Boylston St # 3-300,42.351772,-71.072255,Food access
7237,Hana Foods Inc,Boston,2134,1400 Commonwealth Ave # 4,42.348273,-71.138371,Food access
7238,Happy Family Food Market,Boston,2111,11 Hudson St # A,42.350857,-71.060232,Food access
7255,Home Market Foods,Boston,2118,18 Food Mart Rd,42.337343,-71.062851,Food access
7279,International Food,Boston,2128,984 Saratoga St,42.386937,-71.007066,Food access
7296,J Pace & Son Inc,Boston,2114,75 Blossom Ct # 1,42.36491,-71.066809,Food access
7297,J Pace & Sons Inc,Boston,2113,42 Cross St,42.363157,-71.056787,Food access
7308,Jia Ho Supermarket,Boston,2111,692 Washington St,42.351204,-71.062668,Food access
7332,Kosmos Market,Boston,2118,683 Tremont St # 2,42.341556,-71.076623,Food access
7336,L & D Market Inc,Boston,2128,121 Meridian St,42.373244,-71.038774,Food access
7339,L Win Family Co @ Suffolk Univ,Boston,2108,74 Suffolk Street,42.357979,-71.062564,Food access
7354,Lambert's Marketplace,Boston,2111,140 Tremont St,42.355656,-71.062556,Food access
7358,Lefty's Silver Cart,Boston,2118,20 Hanson St # 1,42.343585,-71.07029,Food access
7375,Lord Jeff's Beef Place,Boston,2118,129 Newmarket Sq,42.33052,-71.066883,Food access
7424,Maverick Market,Boston,2128,205 Maverick St,42.368833,-71.036066,Food access
7427,Medina's Market,Boston,2118,65 W Dedham St,42.342113,-71.07302,Food access
7436,Meridian Food Market,Boston,2128,121 Meridian St,42.373244,-71.038774,Food access
7449,Miller's Market Inc,Boston,2127,336 K St,42.332167,-71.03709,Food access
7451,Ming Yu Seafood,Boston,2111,10 Tyler St,42.350978,-71.060463,Food access
7474,Ne Open Markets LLC,Boston,2118,580 Harrison Ave,42.340651,-71.067897,Food access
7505,Nuevo Mundo Food Market,Boston,2128,192 Maverick St,42.369239,-71.036537,Food access
7511,Old Red Dog,Boston,2109,15 State St,42.362992,-71.09853,Food access
7541,Peoples Tropical Foods,Boston,2118,1830 Washington St,42.335448,-71.078227,Food access
7558,Popcorn Plaza,Boston,2110,225 Franklin St # 26383a,42.356184,-71.054072,Food access
7562,Portillo's Food Market,Boston,2128,60 Maverick St,42.371196,-71.040954,Food access
7566,Preferred Meal Systems Inc,Boston,2118,85 Newmarket Sq,42.329402,-71.06701,Food access
7597,Regency Centers,Boston,2110,185 Franklin St,42.3554,-71.054818,Food access
7601,Rite Foods,Boston,2210,500 E St,42.343093,-71.043142,Food access
7609,Rosis Market,Boston,2128,226 Sumner St,42.368599,-71.03902,Food access
7612,Roxtar Foods LTD,Boston,2118,1200 Washington St # 507,42.34302,-71.066711,Food access
7634,Savenor's Market,Boston,2114,160 Charles St,42.360554,-71.070912,Food access
7648,Shawmut Grocery Store,Boston,2118,614 Shawmut Ave,42.335454,-71.080469,Food access
7656,Smart Eat Foods Inc,Boston,2215,899 Beacon St # 2,42.346206,-71.105162,Food access
7657,Snack N' Play,Boston,2111,600 Washington St,42.352951,-71.062494,Food access
7659,Snacks Express,Boston,2111,60 South St,42.351724,-71.056757,Food access
7661,Song & H Foods Corp,Boston,2128,154 Faywood Ave,42.392006,-71.006433,Food access
7662,Soodies South Boston LLC,Boston,2127,230 W Broadway,42.339831,-71.051875,Food access
7664,South East Market,Boston,2111,210 Harrison Ave,42.347972,-71.062318,Food access
7696,Super Eighty Eight,Boston,2215,1095 Commonwealth Ave,42.352259,-71.124298,Food access
7711,Symphony Market,Boston,2215,1130 Boylston St,42.346884,-71.089021,Food access
7712,T & M Food Corp,Boston,2108,26 Province St,42.357451,-71.0595,Food access
7720,Tedeschi Food Shops,Boston,2116,357 Tremont St,42.348308,-71.067559,Food access
7741,Truong Thanh Market,Boston,2111,65 Beach St,42.351115,-71.060109,Food access
7754,Us Specialty Food Agency,Boston,2128,245 Sumner St,42.367941,-71.038472,Food access
7773,Walking City Foods Inc,Boston,2117,133 Clarendon St,42.34903,-71.074001,Food access
7802,Wollaston's West Village,Boston,2115,460 Parker St,42.338235,-71.092653,Food access
7805,X & Y Food Inc,Boston,2215,1095 Commonwealth Ave,42.352259,-71.124298,Food access
7806,Xing Fu Food Boston,Boston,2110,101 Arch St # 160,42.354954,-71.059085,Food access
7837,Boost Juice Bar,Boston,2110,225 Franklin St,42.356184,-71.054072,Food access
7857,City Fruit Co,Boston,2111,231 Harrison Ave # A,42.347472,-71.063016,Food access
7870,E T C Juicery,Boston,2113,1 Lathrop Pl # 1,42.36392,-71.053981,Food access
7900,Good Seasons Trading Inc,Boston,2118,911 Massachusetts Ave,42.330506,-71.070309,Food access
7910,Hua Shing Inc,Boston,2118,123 Newmarket Sq,42.33052,-71.066883,Food access
7914,Jevojuice Inc,Boston,2110,230 Congress St,42.354565,-71.054134,Food access
7921,Juice Republic Inc,Boston,2111,200 Lincoln St # 404,42.350241,-71.058495,Food access
7927,Kirin Produce Co,Boston,2111,22 Oxford St # 24,42.35179,-71.06031,Food access
7942,Mass Produce,Boston,2128,32 White St,42.380676,-71.03853,Food access
7951,Moxie's Juice Co,Boston,2127,135 W 8th St,42.334819,-71.053647,Food access
7966,Plum Produce,Boston,2118,552 Tremont St,42.343758,-71.071455,Food access
8008,We Juice Inc,Boston,2111,49 Beach St # 62,42.351356,-71.060799,Food access
8020,Faneuil Hall Market Place,Boston,2109,1 Faneuil Hall Sq # 1,42.360041,-71.055744,Food access
8023,Fruitata Organic Juice & Smths,Boston,2199,800 Boylston St,42.348804,-71.081983,Food access
8033,Kirin Produce Co,Boston,2118,131 Newmarket Sq,42.33052,-71.066883,Food access
8058,Alba Produce,Boston,2113,18 Parmenter St,42.363816,-71.05508,Food access
8068,Back Bay Market,Boston,2116,145 Dartmouth St # 2,42.347378,-71.074841,Food access
8074,Bee's Produce,Boston,2118,960 Massachusetts Ave,42.329946,-71.068802,Food access
8085,C&D Produce,Boston,2128,260 Maverick St,42.368066,-71.033773,Food access
8089,Chang Ching Produce,Boston,2118,123 Newmarket Sq,42.33052,-71.066883,Food access
8092,City Produce,Boston,2111,231 Harrison Ave # 1a,42.347472,-71.063016,Food access
8107,Do Bao Vegetable Co,Boston,2111,227 Harrison Ave,42.347682,-71.062945,Food access
8109,Family Produce Market Corp,Boston,2128,51 Cottage St,42.367108,-71.035677,Food access
8131,Fruit Punch Records,Boston,2215,PO Box 15493,42.348292,-71.094974,Food access
8137,Global Village Fruits Inc,Boston,2115,107 Avenue Louis Pasteur # 231,42.337637,-71.104168,Food access
8141,Grasmick Produce Co,Boston,2110,51 Franklin St,42.355515,-71.058551,Food access
8167,Lafauci & Sons Inc,Boston,2113,46 Cross St # 50,42.363275,-71.056477,Food access
8171,Local Roots,Boston,2113,402 Hanover St,42.36594,-71.052893,Food access
8174,Marshall's Fenway Farm Stand,Boston,2215,1345 Boylston St,42.344082,-71.09976,Food access
8193,One Twenty Five,Boston,2118,960r Massachusetts Ave,42.340851,-71.070838,Food access
8211,Ramirez Produce,Boston,2128,252 Princeton St # 1,42.379698,-71.030616,Food access
8215,Scire Fruit Inc,Boston,2113,64 Salem St,42.363392,-71.056117,Food access
8221,Snap Top Market,Boston,2116,303 Columbus Ave,42.346653,-71.07437,Food access
8230,Thirst Juice Co,Boston,2108,44 School St,42.357735,-71.059748,Food access
8247,Xin Bao Vegetable Co,Boston,2116,198 Tremont St # 407,42.35214,-71.064567,Food access
8264,Ahold USA,Boston,2110,2 International Pl,42.356372,-71.054279,Food access
8282,Bacco Fine Foods Inc,Boston,2116,31 Saint James Ave # 170,42.350736,-71.071623,Food access
8306,Crabby Jacks Gen Store Two,Boston,2109,1 Faneuil Hall Sq # 100,42.360041,-71.055744,Food access
8309,Crt Food & Beverage,Boston,2115,907 Boylston St,42.348459,-71.084316,Food access
8310,Csn Stores LLC,Boston,2116,4 Copley Pl # 700,42.347223,-71.07924,Food access
8319,Deluca's Back Bay Market,Boston,2116,239 Newbury St,42.349781,-71.081873,Food access
8335,Five Seventy Market,Boston,2118,570 Tremont St,42.343534,-71.072323,Food access
8342,Foodie's Urban Market,Boston,2118,1421 Washington St,42.341145,-71.070645,Food access
8348,G-Mart Supermarket,Boston,2111,109 Lincoln St,42.351628,-71.058504,Food access
8384,Marlboro Market,Boston,2115,45 Massachusetts Ave,42.34992,-71.089096,Food access
8407,Prime Shoppe,Boston,2109,104 Faneuil Hall Market Pl,42.359135,-71.055237,Food access
8413,Rescor Of Quincy Market Inc,Boston,2109,1 Faneuil Hall Market Pl,42.359735,-71.053586,Food access
8465,Two Guys Foods Inc,Boston,2118,434 Massachusetts Ave,42.340745,-71.081798,Food access
8488,American Food Management,Boston,2116,161 Berkeley St,42.349414,-71.071886,Food access
8534,C Mart Of Herald St,Boston,2118,50 Herald St,42.346203,-71.065154,Food access
8552,Deluca's Market,Boston,2114,11 Charles St # 1,42.356506,-71.06957,Food access
8582,Hannaford Supermarket,Boston,2116,39 Church St,42.349383,-71.06802,Food access
8612,Hong Kong Supermarket,Boston,2215,1095 Commonwealth Ave # 300,42.352259,-71.124298,Food access
8759,Shaw's Supermarket,Boston,2215,33 Kilmarnock St,42.344209,-71.100188,Food access
8836,Star Market,Boston,2215,1065 Commonwealth Ave # 2,42.352681,-71.12333,Food access
8837,Star Market,Boston,2215,33 Kilmarnock St,42.344209,-71.100188,Food access
8838,Star Market,Boston,2199,53 Huntington Ave,42.347813,-71.079467,Food access
8870,Stop & Shop Supermarket,Boston,2114,181 Cambridge St,42.361264,-71.065892,Food access
8871,Stop & Shop Supermarket,Boston,2127,713 E Broadway,42.335278,-71.036651,Food access
9051,Trader Joe's,Boston,2111,711 Atlantic Ave # 3,42.351165,-71.05667,Food access
9052,Trader Joe's,Boston,2115,899 Boylston St,42.348434,-71.08395,Food access
9090,Whole Foods Market,Boston,2115,15 Westland Ave,42.3439,-71.087246,Food access
9091,Whole Foods Market,Boston,2114,161 Cambridge St,42.362107,-71.066009,Food access
9092,Whole Foods Market,Boston,2114,181 Cambridge St,42.361264,-71.065892,Food access
9093,Whole Foods Market,Boston,2118,310 Harrison Ave # 348,42.34568,-71.063308,Food access
9094,Whole Foods Market,Boston,2118,348 Harrison Ave,42.34486,-71.063631,Food access
9124,Wollaston's Market,Boston,2115,369 Huntington Ave,42.340359,-71.090304,Food access
9191,H-H Convenience,Boston,2108,Downtown Crossing Mbta Station,42.357979,-71.062564,Food access
9196,Your Convenient,Boston,2111,62-74 Essex Street,42.35179,-71.061176,Food access
9202,Boston/Copley Square,Boston,2116,206 Clarendon St,42.35014,-71.07497,Food access
9203,Roxbury/Dudley Town Common,Boston,2119,Blue Hill Ave & Dudley St,42.32529,-71.07497,Food access
9206,Boston Public Market/Greenway,Boston,2108,136 Blackstone Street,42.35919,-71.05933,Food access
9329,Boston/South Station/Dewey Square,Boston,2110,Summer St & Atlantic Ave,42.35321,-71.05512,Food access
9331,Boston/Boston University,Boston,2215,775 Commonwealth Ave.,42.3509,-71.10814,Food access
9429,Dorchester/Carney Hospital,Boston,2124,2100 Dorchester Ave.,42.27898,-71.06634,Food access
9437,East Boston,Boston,2128,209 Sumner Street,42.36899,-71.0394,Food access
9443,Boston Public Market,Boston,2109,136 Blackstone Street,42.36236,-71.05759,Food access
9444,Boston Public Market,Boston,2109,136 Blackstone Street,42.36236,-71.05759,Food access
9445,Dorchester/Carney Hospital,Boston,2124,2100 Dorchester Ave.,42.27898,-71.06634,Food access
9486,Boston/SOWA,Boston,2118,500 Harrison Ave.,42.34231,-71.06581,Food access
9571,Target,Boston,2215,1341 Boylston St,42.34438,-71.09966,Food access
