name,type,address,zip,lat,lon
Wilson Park,open space,Allston-Brighton,,42.3409848,-71.14593012769663
Nickerson Field,open space,Allston-Brighton,,42.3533687,-71.11928338446205
Smith Playground,open space,Allston-Brighton,,42.3643591,-71.13141084258021
Fern Square,open space,Allston-Brighton,,41.211271,-81.496505
Ringer Playground,open space,Allston-Brighton,,42.35044595,-71.1382238183792
McKinney Playground,open space,Allston-Brighton,,42.35475125,-71.15292158302212
Hobart Park,open space,Allston-Brighton,,42.35573460000001,-71.16126998024089
Jackson Square,open space,Allston-Brighton,,42.322596000000004,-71.1002569
Boyden Park,open space,Allston-Brighton,,42.3395448,-71.16631677821685
Evergreen Cemetery,open space,Allston-Brighton,,42.33833615,-71.1629570539935
Hardiman Playground,open space,Allston-Brighton,,42.3512392,-71.16621591550701
St John's Seminary,open space,Allston-Brighton,,42.3440176,-71.1626777
Rogers Park,open space,Allston-Brighton,,42.347319299999995,-71.15922020000001
Euston Path Rock,open space,Allston-Brighton,,42.34245945,-71.14753942222029
Foster Street Hill,open space,Allston-Brighton,,42.3675338,-71.0541999
Chandler Pond,open space,Allston-Brighton,,42.345071999999995,-71.16566743468981
Nonquit Green,open space,Dorchester,,42.3181598,-71.06837095
Mullen Square,open space,Dorchester,,42.31934655000001,-71.05793295479421
Calf Pasture,open space,Dorchester,,42.3165932,-71.03628257819757
Meetinghouse Hill Overlook,open space,Dorchester,,42.3080788,-71.06013530804853
Downer Avenue Playground,open space,Dorchester,,42.31155685,-71.06162420206817
Quincy/Stanley Play Area,open space,Dorchester,,42.311018,-71.06881712214063
Deer Street Park,open space,Dorchester,,32.97981,-80.198647
Savin Hill Beach,open space,Dorchester,,42.30819395,-71.0620442942198
Coppens Square,open space,Dorchester,,42.30840875,-71.06433306598706
Old Harbor Park,open space,Dorchester,,42.3197849,-71.04014772454207
McConnell Park,open space,Dorchester,,42.30867215,-71.05275430768006
Boston Common,open space,Back Bay/Beacon Hill,,42.3550406,-71.06605148171109
Central Burying Ground,open space,Back Bay/Beacon Hill,,42.352889000000005,-71.06598232460587
Public Garden,open space,Back Bay/Beacon Hill,,42.34932979999999,-71.07865473816359
Granary Burying Ground,open space,Back Bay/Beacon Hill,,42.35713265,-71.06178524952969
Myrtle Street Playground,open space,Back Bay/Beacon Hill,,42.35920365,-71.06609592462685
Louisburg Square,open space,Back Bay/Beacon Hill,,42.3584437,-71.06876380854683
State House Park,open space,Back Bay/Beacon Hill,,42.35684365,-71.06862657516851
Copley Square Park,open space,Back Bay/Beacon Hill,,42.34999015,-71.07643966570842
Prudential Center Plaza I,open space,Back Bay/Beacon Hill,,42.3482417,-71.08120994737001
Somerset Street Plaza,open space,Back Bay/Beacon Hill,,42.3593501,-71.061593
DeFilippo Playground,open space,Central Boston,,42.366460100000005,-71.05693575584002
Copp's Hill Burying Ground,open space,Central Boston,,42.367366100000005,-71.05591176866496
Copp's Hill Terrace,open space,Central Boston,,42.3678366,-71.05533372628653
Charter Street Park,open space,Central Boston,,42.367226,-71.05468499999999
Paul Revere Mall,open space,Central Boston,,42.365760200000004,-71.05363426580627
Polcari Park,open space,Central Boston,,42.365039700000004,-71.0544317696302
Cutillo Park,open space,Central Boston,,42.3635982,-71.05642722553571
City Hall Plaza,open space,Central Boston,,42.36032279999999,-71.05909840000001
Norman Leventhal Park,open space,Central Boston,,42.3563081,-71.05562989538274
Pemberton Square I,open space,Central Boston,,42.358874,-71.0611127
Pemberton Square II,open space,Central Boston,,42.359541799999995,-71.0606066
Angell Memorial Square,open space,Central Boston,,42.357108000000004,-71.05615307947912
Union Street Park I,open space,Central Boston,,42.3616305,-71.05726740000001
School Street Park,open space,Central Boston,,42.313331,-71.097565
Prince Street Park,open space,Central Boston,,42.316097,-71.123632
Ausonia Plaza,open space,Central Boston,,42.36295870000001,-71.05232099421164
Rachel Revere Square,open space,Central Boston,,42.3635291,-71.0534937
Tai Tung Park,open space,Central Boston,,42.3483016,-71.06152956297622
Pine Street Park,open space,Central Boston,,42.347404100000006,-71.06389906767166
Quincy Market Square,open space,Central Boston,,42.36020755,-71.05491278796718
Winthrop Square,open space,Central Boston,,42.3547933,-71.05770695560545
Edwards Playground,open space,Charlestown,,42.37947985,-71.06839606747283
City Square,open space,Charlestown,,42.3718654,-71.0612168
John Harvard Mall,open space,Charlestown,,42.37261265,-71.06251420485242
Paul Revere Park,open space,Charlestown,,42.37011365,-71.06233429784388
Charlestown HS Athletic Fields,open space,Charlestown,,42.38093315,-71.05961097467696
Ryan Playground,open space,Charlestown,,42.386085200000004,-71.07135099322763
Gardens for Charlestown,open space,Charlestown,,42.38301665,-71.0714625249932
Barry Playground,open space,Charlestown,,42.3794641,-71.05342189107034
Doherty Playground,open space,Charlestown,,42.382474,-71.06746712158338
St Francis De Sales Cemetery,open space,Charlestown,,42.38179215,-71.06560671040901
Bunker Hill Monument,open space,Charlestown,,42.37635225,-71.0607673472946
Winthrop Square,open space,Charlestown,,42.37438695,-71.06012573120495
Hayes Square,open space,Charlestown,,42.37684065,-71.05679931979729
Charlestown Sprouts Garden,open space,Charlestown,,42.38183225,-71.0580630973875
Noyes Playground,open space,East Boston,,42.38763265,-71.0099927720822
Bayswater Street,open space,East Boston,,42.383407,-71.001488
Temple Ohabei Shalom Cemetery,open space,East Boston,,42.3825097,-71.01492552645391
Bennington Street Cemetery,open space,East Boston,,42.3809794,-71.02101422258082
American Legion Playground,open space,East Boston,,42.38191815,-71.0294987096544
Prescott Square,open space,East Boston,,42.38109325,-71.03092071583801
Putnam Square,open space,East Boston,,42.38028045,-71.0330584630603
Paris Street Playground,open space,East Boston,,42.3722366,-71.03716805710849
Brophy Park,open space,East Boston,,42.36569590000001,-71.03356400457136
Sumner & Lamson Street Playground,open space,East Boston,,42.36595515,-71.03244753926799
Condor Street Beach I,open space,East Boston,,42.38314765,-71.02942230245195
Festa Field,open space,East Boston,,42.38070815,-71.01980892776159
East Boston Greenway,open space,East Boston,,42.3789279,-71.02453054899365
Dom Savio Athletic Field,open space,East Boston,,42.3833249,-71.0132813800273
Symphony Community Park,open space,Fenway/Kenmore,,42.3448807,-71.08777817332222
Edgerly Road Playground,open space,Fenway/Kenmore,,42.346264700000006,-71.08796180723957
Symphony Road Garden,open space,Fenway/Kenmore,,42.343158700000004,-71.08965
Oscar Tugo Circle,open space,Fenway/Kenmore,,42.33716325,-71.10316234080119
Commonwealth Avenue Mall II,open space,Fenway/Kenmore,,42.35345220000001,-71.07167779999999
Stony Brook Sewer Easement,open space,Fenway/Kenmore,,42.3411458,-71.09168526154407
Harry Ellis Dickson Park,open space,Fenway/Kenmore,,42.34363065,-71.0871233443723
Gallops Island,open space,Harbor Islands,,42.3264875,-70.939492
Lovells Island,open space,Harbor Islands,,42.329265299999996,-70.9286585
Georges Island,open space,Harbor Islands,,42.3197213,-70.92809940333144
Green Island,open space,Harbor Islands,,43.6381206,-73.5362285
Little Calf Island,open space,Harbor Islands,,42.3458088,-70.89396052026227
Calf Island,open space,Harbor Islands,,42.3413883,-70.89594670150237
Outer Brewster Island,open space,Harbor Islands,,42.3417654,-70.8772685
Middle Brewster Island,open space,Harbor Islands,,42.33901425000001,-70.8879245569895
Great Brewster Island,open space,Harbor Islands,,42.33204310000001,-70.8961577
Shag Rocks,open space,Harbor Islands,,42.330126899999996,-70.88286277209419
Long Island,open space,Harbor Islands,,43.6381206,-73.5362285
Little Brewster Island,open space,Harbor Islands,,42.327876700000004,-70.89032409999999
Thompson Island,open space,Harbor Islands,,42.3153762,-71.0083825
Rainsford Island,open space,Harbor Islands,,42.312598799999996,-70.95088100000001
Deer Island,open space,Harbor Islands,,42.3398479,-70.95450770000001
Moon Island,open space,Harbor Islands,,46.9725908,-123.9329469
Monterey Hilltop I,open space,Hyde Park,,42.270319,-71.1267706512152
Monterey Hilltop II,open space,Hyde Park,,42.270319,-71.1267706512152
Sherrin Woods I,open space,Hyde Park,,42.26674175,-71.1235748361425
Oak Lawn Cemetery,open space,Hyde Park,,41.724138700000005,-87.74058149999999
Doyle Playground,open space,Hyde Park,,42.2611852,-71.11186660289313
Match Charter School Campus,open space,Hyde Park,,42.3051984,-71.10358769999999
West Street,open space,Hyde Park,,42.261858000000004,-71.122748
Dell Rock I,open space,Hyde Park,,42.2601767,-71.1221877805682
Amatucci Playground,open space,Hyde Park,,42.2484477,-71.12634123083775
Camp Meigs,open space,Hyde Park,,42.2348085,-71.13190227777186
Williams Square,open space,Hyde Park,,42.2460645,-71.11492132989487
Mother Brook Reservation,open space,Hyde Park,,42.24493629999999,-71.14341340000001
Mission Hill Playground,open space,Jamaica Plain,,42.33311035,-71.09918918981035
Gibbons Playground,open space,Jamaica Plain,,42.33117395,-71.09836522887827
Mozart Street Playground,open space,Jamaica Plain,,42.32236265,-71.10449225666835
Beecher Street Play Area,open space,Jamaica Plain,,42.31809395,-71.10683145756303
Lawrence Farm,open space,Jamaica Plain,,35.294927799999996,-87.4422927
Soldier's Monument,open space,Jamaica Plain,,42.3094264,-71.11578490000001
Forbes Street Garden,open space,Jamaica Plain,,42.321045,-71.10667600000001
Tobin Community Center Garden,open space,Jamaica Plain,,42.3323958,-71.09805018128121
Johnson Park II,open space,Jamaica Plain,,42.3115805,-71.10797075751182
Johnson Park I,open space,Jamaica Plain,,42.3115805,-71.10797075751182
Mahoney Square,open space,Jamaica Plain,,42.352500899999995,-71.06467190000001
Hellenic Hill I,open space,Jamaica Plain,,42.3138545,-71.13142120452471
Back of the Hill Urban Wild,open space,Jamaica Plain,,42.3296806,-71.1097500564877
Hall/Boynton Street Garden,open space,Jamaica Plain,,42.305409999999995,-71.112447
Anson Street Garden,open space,Jamaica Plain,,42.303028000000005,-71.113949
Woodhaven,open space,Mattapan,,42.272191,-71.096457
Gladeside I,open space,Mattapan,,42.27396645,-71.0875393039113
Gladeside II,open space,Mattapan,,42.27191645,-71.08653507719927
Walker Playground,open space,Mattapan,,42.2779072,-71.08970662913822
Kennedy Playground,open space,Mattapan,,42.26544045,-71.09593423740316
Forest Hills Cemetery,open space,Roslindale,,42.297795,-71.1159597
Walter Street Cemetery,open space,Roslindale,,42.2913252,-71.13160529999999
Pagel Playground,open space,Roslindale,,42.2890063,-71.1188187749639
Parkman Playground,open space,Roslindale,,42.2959986,-71.11305065244099
Fallon Field,open space,Roslindale,,42.28743255,-71.13528381682634
Southwest Boston Garden Club,open space,Roslindale,,42.2912093,-71.12449659999999
Delano Park,open space,Roslindale,,42.279864,-71.12624
Dudley Town Common,open space,Roxbury,,42.3267476,-71.07555968653115
Jeep Jones Park,open space,Roxbury,,42.33085335,-71.0921738089555
Linwood Park,open space,Roxbury,,42.3285314,-71.0947215742339
Kittredge Park,open space,Roxbury,,42.3282527,-71.09258179999999
St James Street Park,open space,Roxbury,,42.32701255,-71.08510031347781
Horatio Harris Park,open space,Roxbury,,42.31852325,-71.09008121578628
Crawford Street Playground,open space,Roxbury,,42.3154033,-71.09290255361294
Flaherty Playground,open space,Roxbury,,42.31147670000001,-71.1044350856737
Highland Park,open space,Roxbury,,42.32518655,-71.09497367594469
Cedar Square,open space,Roxbury,,42.32481275,-71.08954978007156
Elm Hill Park,open space,Roxbury,,42.312927,-71.08215109708455
Quincy Street Play Area,open space,Roxbury,,42.31472945,-71.07974324285256
Howes Playground,open space,Roxbury,,42.3242443,-71.078685019776
Little Scobie Playground,open space,Roxbury,,42.3227045,-71.0807515017887
Erie/Ellington Playground,open space,Roxbury,,42.3013581,-71.08325152069659
Puddingstone Park,open space,Roxbury,,42.305106099999996,-71.08353753127183
John Eliot Square,open space,Roxbury,,42.32992935,-71.09082194557121
St. Monica's,open space,Roxbury,,42.3651188,-71.05557940000001
Buena Vista,open space,Roxbury,,42.323527399999996,-71.08336139961719
Granada Park Garden,open space,Roxbury,,42.313061,-71.09831899999999
Egleston Community Garden,open space,Roxbury,,42.3141479,-71.09922420000001
Waldren Road Garden,open space,Roxbury,,42.315523999999996,-71.095197
Winthrop Street Garden,open space,Roxbury,,42.325627000000004,-71.079774
Dennis Street Park,open space,Roxbury,,42.32243585,-71.07494633071316
Medal of Honor Park,open space,South Boston,,42.3362025,-71.03232955805696
Christopher Lee Playground,open space,South Boston,,42.33779745,-71.03184096111653
Hawes Burying Ground,open space,South Boston,,42.334301,-71.03453008149641
Union Burying Ground,open space,South Boston,,42.33410165,-71.03452387667315
Flaherty Park,open space,South Boston,,42.341888299999994,-71.05306562936521
Buckley Playground,open space,South Boston,,42.33934495,-71.0491195333753
Sterling Square,open space,South Boston,,42.327104600000006,-71.0543103
Veterans Memorial Park,open space,South Boston,,42.34216675,-71.09402035039882
Ronan Park,open space,Dorchester,,42.30447625,-71.06258208712792
Mt. Bowdoin Green,open space,Dorchester,,42.30244445,-71.07604852665878
Byrne Playground,open space,Dorchester,,42.3009609,-71.0521998
Doherty/Gibson Playground,open space,Dorchester,,42.29759755,-71.06187024202322
Wellesley Park,open space,Dorchester,,42.29619305,-71.06584371747316
McMorrow Playground,open space,Dorchester,,42.2957523,-71.05081302293854
Hemenway Playground,open space,Dorchester,,42.29146405,-71.05620130559399
Walsh Playground,open space,Dorchester,,42.27695575,-71.07069984026093
Dorchester Park,open space,Dorchester,,38.61528495,-76.93934272223044
Gallivan/Hallet Circle,open space,Dorchester,,42.283947,-71.046951
Toohig Playground,open space,Dorchester,,42.28426025,-71.04996696283442
Nightingale Garden,open space,Dorchester,,42.2947506,-71.0850343
10 Josephine Street Garden,open space,Dorchester,,42.30038162345755,-71.06573489770484
29 Josephine Street Garden,open space,Dorchester,,42.30034770799975,-71.06525687286869
Ripley Playground,open space,Dorchester,,42.2993766,-71.0760269694312
Garvey Playground,open space,Dorchester,,42.28805545,-71.04571990284325
Centervale Park,open space,Dorchester,,42.296352,-71.06344094647302
Geneva Cliffs I,open space,Dorchester,,42.30358085,-71.07298702555845
Bullard Street Garden,open space,Dorchester,,42.302283,-71.07344499999999
Barry Street Garden,open space,Dorchester,,42.307519,-71.06999300000001
Lydon Way Garden,open space,Dorchester,,42.2890049,-71.059938
Codman Square,open space,Dorchester,,42.29048045,-71.07095679192625
Hayes Park,open space,South End,,42.34376339999999,-71.07548870700293
Peters Park II,open space,South End,,42.3432636,-71.06741372863381
Peters Park I,open space,South End,,42.3432636,-71.06741372863381
Ringgold Park,open space,South End,,42.34325305,-71.0701131633081
Blackstone Square,open space,South End,,42.3396606,-71.07352379999998
Franklin Square,open space,South End,,42.33881495,-71.0725537393588
South End South Burying Ground,open space,South End,,42.337964,-71.07406836077053
Worcester Square,open space,South End,,42.33670115,-71.0747468097611
Carter Playground,open space,South End,,42.33894665,-71.0850656293694
Titus Sparrow Park,open space,South End,,42.34351935,-71.07961287420316
Waltham Square,open space,South End,,42.342256,-71.06953399999999
Harriet Tubman Square,open space,South End,,42.34345705,-71.07785066444248
Concord Square,open space,South End,,42.34133345,-71.07886056891941
Kendall & Lenox Streets Garden,open space,South End,,42.33747915,-71.08319675496632
Ramsay Park,open space,South End,,42.33452245,-71.08072255990723
Worcester Street Garden,open space,South End,,42.34065955,-71.07971088067755
Berkeley Street Garden,open space,South End,,42.3544154,-71.07460329999999
Warren & Clarendon Streets Garden,open space,South End,,42.3449534,-71.07262112734159
Dartmouth Green,open space,South End,,42.34463205,-71.07548215808531
Wellington Green,open space,South End,,42.3416908,-71.0819737
Braddock Park Garden,open space,South End,,42.3444205,-71.079307538871
Chester Square,open space,South End,,42.33845655,-71.07902534734791
Msgr. Reynolds Playground,open space,South End,,42.340435299999996,-71.07058713714434
Rutland Square,open space,South End,,42.341006400000005,-71.0773763
Hiscock Park,open space,South End,,42.34267305,-71.07815793235099
Billings Field,open space,West Roxbury,,42.28114715,-71.15609085550977
Leatherbee Woods,open space,West Roxbury,,42.3007326,-71.16394824274289
Mount Benedict Cemetery,open space,West Roxbury,,42.2971178,-71.1679292934082
Mount Lebanon Cemetery,open space,West Roxbury,,42.2895832,-71.1817313146218
Gethsemane Cemetery,open space,West Roxbury,,42.28815485,-71.17924491095648
Dana Road I,open space,West Roxbury,,42.265989000000005,-71.162192
Dana Road II,open space,West Roxbury,,42.265975,-71.161971
Draper Playground,open space,West Roxbury,,42.2602033,-71.16053992435234
Piemonte Park,open space,West Roxbury,,45.0436099,7.634261099999999
Centre Marsh,open space,West Roxbury,,52.9406549,0.0222217
Allandale Woods I,open space,West Roxbury,,42.29625789999999,-71.14097067013276
Allandale Woods III,open space,West Roxbury,,42.299163799999995,-71.13654293354789
Bellevue Hill Reservation,open space,West Roxbury,,42.276487200000005,-71.14394140000002
Harvard Medical School Quadrangle,open space,Fenway/Kenmore,,42.336369700000006,-71.10371624939204
Claymont Terrace,open space,Dorchester,,42.293347,-71.052237
Lucy Stone Schoolyard,open space,Dorchester,,42.2955905,-71.0713456950764
Dartmouth Street Mall,open space,Back Bay/Beacon Hill,,42.3518291,-71.07836282936988
Ramler Park,open space,Fenway/Kenmore,,42.3425487,-71.10073159709637
Richmond & North Streets Park I,open space,Central Boston,,42.36310829999999,-71.05343071699282
Nashua Street Park,open space,Central Boston,,42.3675206,-71.06726168125
Crittenton Hospital,open space,Allston-Brighton,,42.3533,-71.1657
Chestnut Hill Reservoir,open space,Allston-Brighton,,42.33511665,-71.15833763463203
O'Day Playground,open space,South End,,42.34071755,-71.07531925516466
Fan Pier Plaza,open space,South Boston,,42.35467365,-71.04716241266723
Martin's Park,open space,South Boston,,42.35274115,-71.04914130548265
Christian Science Plaza,open space,Fenway/Kenmore,,42.3443592,-71.08349133979884
Braddock Park,open space,South End,,42.34438165,-71.07882009290037
Jenney Plaza,open space,Central Boston,,42.3511816,-71.075939
Reggie Wong Park,open space,Central Boston,,42.3494994,-71.05874931634452
Lewis Mall,open space,East Boston,,42.3681833,-71.04029912396223
Veterans Park I,open space,East Boston,,42.37219930000001,-71.0403796123898
Veterans Park II,open space,East Boston,,42.37219930000001,-71.0403796123898
Sullivan Square,open space,Charlestown,,42.3840946,-71.07697519999999
Caldwell Street Play Area,open space,Charlestown,,42.385403000000004,-71.07782580197866
L Street Beach,open space,South Boston,,42.32903345,-71.03428793583282
M Street Beach,open space,South Boston,,42.33019295,-71.03145063762878
Stonehill Park,open space,Hyde Park,,42.254587,-71.140883
Marine Park,open space,South Boston,,42.33725775,-71.02397767392266
UMass Harborwalk,open space,Dorchester,,42.31236855,-71.03534568760018
Malibu Beach,open space,Dorchester,,33.0262889,-80.2682905
Victory Road Park,open space,Dorchester,,42.29868745,-71.046600403031
Parkman Memorial,open space,Jamaica Plain,,42.3178688,-71.124401
West Roxbury Parkway,open space,West Roxbury,,42.2835683,-71.1471822611768
Florida Street Reservation,open space,Dorchester,,42.2891406,-71.05891729999999
Tenean Beach,open space,Dorchester,,42.2914969,-71.04280076279481
Cedar Grove Cemetery,open space,Dorchester,,42.2768625,-71.0625631897784
Mother Brook I,open space,Hyde Park,,42.24493629999999,-71.14341340000001
Reservation Road Park,open space,Hyde Park,,42.24821,-71.129512
Colella Playground,open space,Hyde Park,,42.24470865,-71.13482698625725
Neponset Valley Parkway,open space,Hyde Park,,42.2416706,-71.13292647512671
Stony Brook Reservation I,open space,Hyde Park,,42.24825125,-71.13397991365922
Clark/Cooper Community Garden,open space,Mattapan,,42.28854875,-71.10378867718833
Rutland Green,open space,South End,,43.3172958,-72.9926037
Follen Garden,open space,Back Bay/Beacon Hill,,42.345137,-71.0799614
Wellington Common,open space,South End,,-41.0877166,175.4520691
West Springfield Garden,open space,South End,,42.3380987,-71.07799285
Highland Park 400 Garden,open space,Roxbury,,42.32518655,-71.09497367594469
Bowditch Garden,open space,Jamaica Plain,,42.310871,-71.126261
Minton Stable Garden,open space,Jamaica Plain,,42.305404,-71.10546163010426
McBride Garden,open space,Jamaica Plain,,42.3057424,-71.11117774545058
Kennedy Garden,open space,Mattapan,,25.7316298,-100.3171745
White Stadium,open space,Roxbury,,42.279465,-71.14841700000001
Beth Israel/Deaconess Plaza,open space,Fenway/Kenmore,,42.3397554,-71.10492182209877
Rivermoor I,open space,West Roxbury,,42.277833,-71.181706
Havey Beach,open space,West Roxbury,,42.283159000000005,-71.136166
Millennium Park I,open space,West Roxbury,,42.2825059,-71.18181443185924
First Church Cemetery,open space,Jamaica Plain,,14.587880100000001,120.9679173
The Rockies,open space,East Boston,,42.36513355,-71.03508170193463
Childe Hassam Park,open space,South End,,42.34607130000001,-71.07470708597981
Roxbury Heritage State Park II,open space,Roxbury,,42.33070105,-71.09009821210236
Nellie Miranda Memorial Park,open space,Dorchester,,42.31873845,-71.06517963628471
Grove Hall Plaza,open space,Roxbury,,42.31772855,-71.08288194328654
St Rose Street Garden,open space,Jamaica Plain,,42.304955,-71.11636700000001
Commonwealth Plaza,open space,Allston-Brighton,,42.352188500000004,-71.14249607912251
Mendoza Square,open space,East Boston,,42.38088825,-71.02246035165547
Centre Place Garden,open space,Roxbury,,42.329394,-71.094981
Highland Avenue Community Garden,open space,Roxbury,,42.32831565,-71.0927630090763
Chestnut Hill Reservoir Garden,open space,Allston-Brighton,,42.33511665,-71.15833763463203
Wilson Square,open space,Allston-Brighton,,42.9923055,-71.64840579999999
Copley Place Plaza,open space,Back Bay/Beacon Hill,,42.3472309,-71.07758361909961
Marketplace Plaza I,open space,Central Boston,,52.94479079999999,-0.1583483
Marketplace Plaza II,open space,Central Boston,,52.94479079999999,-0.1583483
Liberty Square,open space,Central Boston,,42.35787875,-71.0552968824964
Little Mystic Access Area,open space,Charlestown,,42.38156895,-71.05630865942858
Corey Street Court,open space,Charlestown,,42.3781519,-71.05610290000001
Moakley Park,open space,South Boston,,42.32601535,-71.0505174487359
Boston Design Center Plaza,open space,South Boston,,42.3442158,-71.03254685
Kennedy Library Harborwalk,open space,Dorchester,,42.3152984,-71.03319530389088
Boston Medical Center Campus,open space,South End,,42.33417195,-71.07464492068902
Lawndale Terrace Garden,open space,Jamaica Plain,,42.314085,-71.10611
Frederick Douglass Green,open space,South End,,42.33719910000001,-71.0837224
New Chardon Square,open space,Central Boston,,42.3635018,-71.0590707
Nonquit Street Garden,open space,Dorchester,,42.317136100000006,-71.06889499295937
Peabody Square,open space,Dorchester,,42.286064,-71.0640259188719
Savin Hill Cove,open space,Dorchester,,42.30819395,-71.0620442942198
First Church Yard,open space,Roxbury,,14.587880100000001,120.9679173
Williams Street I,open space,Jamaica Plain,,42.306217,-71.10731700000001
Oakview Terrace,open space,Jamaica Plain,,42.319157000000004,-71.109091
Belle Isle Marsh Reservation,open space,East Boston,,42.38798025,-70.99344373450086
Harbor Point Boulevard,open space,Dorchester,,42.3191071,-71.04276426128294
Jamaicaway,open space,Jamaica Plain,,42.317833,-71.116675
Perkins Street,open space,Jamaica Plain,,42.319235799999994,-71.1239641
Chestnut Street,open space,Jamaica Plain,,42.3221251,-71.1195233
Hellenic Hill II,open space,Jamaica Plain,,42.3138545,-71.13142120452471
Faneuil Square,open space,Central Boston,,42.3556526,-71.163387
Temple Street Park,open space,Back Bay/Beacon Hill,,42.3600334,-71.06347757500002
Williams Street III,open space,Jamaica Plain,,42.306197314474375,-71.1072965038939
American Legion Highway,open space,Multi-District,,42.285513,-71.11045
Morton Street,open space,Roxbury,,42.3368236,-71.098744
St Michael's Cemetery,open space,Mattapan,,42.2891057,-71.10574303643517
Monadnock Street Garden,open space,Dorchester,,42.31710045,-71.06848339999998
Patten's Cove,open space,Dorchester,,42.31365039999999,-71.04867412089176
Leo M. Birmingham Parkway,open space,Allston-Brighton,,42.360360899999996,-71.1465074
Rivermoor II,open space,West Roxbury,,42.277674,-71.181762
Rivermoor III,open space,West Roxbury,,42.27782773294843,-71.18167527553251
Parley Vale Preserve,open space,Jamaica Plain,,42.315092799999995,-71.11305718032267
Condor Street Overlook,open space,East Boston,,42.38259635,-71.04045772097336
McCormack School Ball Field,open space,Dorchester,,42.318254,-71.0449014718429
Boston College HS Athletic Fields,open space,Dorchester,,42.3156792,-71.04370649041999
Truman Parkway,open space,Hyde Park,,42.2510314,-71.1206445
Franklin Park Zoo,open space,Roxbury,,42.30522595,-71.08844808797653
Newland Street Park,open space,South End,,42.3399065,-71.0749501
Bromley Heath Play Area,open space,Jamaica Plain,,42.32515735,-71.10238946848499
Eastport Park,open space,South Boston,,42.34877450000001,-71.04026355972351
South Boston Maritime Park,open space,South Boston,,42.34839385,-71.03983697445204
Millennium Park II,open space,West Roxbury,,42.2825059,-71.18181443185924
North Point Park,open space,Central Boston,,42.372931,-71.07471011907366
Bremen Street Park I,open space,East Boston,,42.37507120000001,-71.03078508491406
South Bank Park,open space,Central Boston,,52.8661625,-0.06144840000000001
Union Square Plaza,open space,Allston-Brighton,,42.3537768,-71.13661996477273
Our Garden,open space,East Boston,,42.37759315,-71.03972102570678
Boston Evening Academy Garden,open space,Roxbury,,42.32701325,-71.0817730970007
South Street Community Garden,open space,Jamaica Plain,,42.2655947,-71.0957838439984
Starr Lane Park,open space,Jamaica Plain,,42.312368,-71.11247
Clementine Park,open space,Dorchester,,42.29278660000001,-71.065595
Columbia Point Community Garden,open space,Dorchester,,42.3186099,-71.0461254658839
Lombardi Memorial Park,open space,East Boston,,42.3706632,-71.04080091114093
West End Park,open space,Central Boston,,42.3639186,-71.0638993
Lincoln Street Green,open space,Central Boston,,42.3521689,-71.0580657
Leather District Park,open space,Central Boston,,42.3523222,-71.05734307739965
Chinatown Park,open space,Central Boston,,42.352216600000006,-71.0626074
Armenian Heritage Park,open space,Central Boston,,42.36092235,-71.053239007294
North Street Park,open space,Central Boston,,42.36238215,-71.0549059569462
Endicott Triangle,open space,Central Boston,,42.3636375,-71.05735416842433
Dewey Square Plaza,open space,Central Boston,,42.3529841,-71.05555365348606
Wormwood Park,open space,South Boston,,42.3474361,-71.05031509999999
Tufts Wharf Harborwalk,open space,Central Boston,,42.353536299999995,-71.05152325591621
Russia Wharf Harborwalk,open space,Central Boston,,42.35278305,-71.05219517475192
Binford Street Park,open space,South Boston,,42.34767625,-71.05323851331045
Galvin Green,open space,Charlestown,,42.37175560000001,-71.06432414826071
I-90 Interchange,open space,Central Boston,,52.9798189,-0.021346599999999997
North End Park,open space,Central Boston,,42.3684306,-71.05477320000001
Wharf District Park,open space,Central Boston,,42.35644675,-71.05032374307919
Bay Village Garden,open space,Central Boston,,42.34912545,-71.06835075072931
Pemberton Square Access,open space,Central Boston,,42.374923100000004,-71.0290656
Prudential Center Plaza II,open space,Back Bay/Beacon Hill,,42.34829305,-71.08314012193398
Prudential Center Plaza III,open space,Back Bay/Beacon Hill,,42.348350599999996,-71.07969233100457
North Beacon Allee,open space,Allston-Brighton,,42.34932979999999,-71.07865473816359
Franklin Park II,open space,Roxbury,,42.30275820000001,-71.09492479361211
O'Reilly Way Court,open space,Charlestown,,42.3778958,-71.0584032
Thoreau Path,open space,Central Boston,,42.3641799,-71.0651898
Brian Honan Park,open space,Allston-Brighton,,42.34431725,-71.14041139384662
Brighton HS Hillside,open space,Allston-Brighton,,42.349246750000006,-71.14544342050723
St. Elizabeth's Hospital Campus,open space,Allston-Brighton,,42.34864995,-71.14799584850206
Allandale Woods II,open space,West Roxbury,,42.3004843,-71.134299769234
Oxford Place Plaza,open space,Central Boston,,42.3520445,-71.06080190000002
Melvinside Play Area,open space,Dorchester,,42.31224545,-71.05841493200296
Huntington-Hemenway Mall,open space,Fenway/Kenmore,,42.3396279,-71.092027891276
Frederick Douglass Peace Garden,open space,South End,,42.33651935,-71.08438892803461
Brigham Circle Plaza,open space,Jamaica Plain,,42.3346084,-71.1036922
Dartmouth Square,open space,South End,,42.34463205,-71.07548215808531
Sharon's Park,open space,Dorchester,,42.32148125000001,-71.05550936419894
Washburn Street Green I,open space,South Boston,,42.325988,-71.05864
Crawford Street Park,open space,Roxbury,,42.312785999999996,-71.088078
Valenti Square,open space,Central Boston,,42.364743299999994,-71.05861314999999
Brooke Courthouse Plaza,open space,Central Boston,,42.3628979,-71.06135498989637
Fairlawn Green,open space,Mattapan,,42.2674088,-71.10140030000001
Beethoven School Play Area,open space,West Roxbury,,42.2638336,-71.15516708945601
Algonquin Square,open space,Dorchester,,38.5828967,-76.1057745
Egleston Plaza I,open space,Roxbury,,42.314473,-71.100679
Egleston Plaza II,open space,Roxbury,,42.314473,-71.100679
Egleston Square Peace Garden,open space,Roxbury,,42.31456465,-71.09977687479902
Foley Square,open space,Hyde Park,,42.2641354,-71.11808702179452
Jones Square,open space,Hyde Park,,42.2525623,-71.113672691
Schraffts Centre Harborwalk,open space,Charlestown,,42.3857031,-71.0697299782299
Scalia Square,open space,Dorchester,,42.30098415000001,-71.05481007711336
Schroeder Plaza,open space,Roxbury,,42.33464945,-71.08994976330189
Solari Square,open space,East Boston,,42.36549829999999,-71.056722
Webster Square,open space,Hyde Park,,42.25787155,-71.12074031636097
Wolf Square,open space,Roxbury,,39.2088006,-121.0694854
Woodworth Square,open space,Hyde Park,,42.2873662,-71.0410965
Union Street Park II,open space,Central Boston,,42.3616305,-71.05726740000001
Federal Reserve Plaza,open space,Central Boston,,42.35257670000001,-71.05490083939179
Bremen Street Park II,open space,East Boston,,42.37507120000001,-71.03078508491406
Sherrin Woods II,open space,Hyde Park,,42.26674175,-71.1235748361425
Dell Rock II,open space,Hyde Park,,42.2601767,-71.1221877805682
Woodhaven Street Lot,open space,Mattapan,,42.273263,-71.0937
Orlando-Monterey Lot II,open space,Mattapan,,28.495026899999996,-81.458463575
Richmond & North Streets Park II,open space,Central Boston,,42.36310829999999,-71.05343071699282
Arborway II,open space,Roslindale,,42.313267125,-71.122422
Allandale Woods IV,open space,West Roxbury,,42.29625789999999,-71.14097067013276
Allandale Woods V,open space,West Roxbury,,42.299163799999995,-71.13654293354789
Shirley-Eustis House Grounds,open space,Roxbury,,42.32337705000001,-71.07206231200723
Government Center Garage Plaza,open space,Central Boston,,42.3627482,-71.05887529550347
Bowdoin Mall,open space,Central Boston,,42.3613939,-71.06211970000001
Piano Craft Garden,open space,South End,,42.338711100000005,-71.0819642
Ashburton Place Plaza,open space,Central Boston,,42.359274400000004,-71.0627712
Back Bay Fens,open space,Fenway/Kenmore,,42.34107235000001,-71.09433006823707
Riverway I,open space,Fenway/Kenmore,,42.343278999999995,-71.103872
Riverway III,open space,Jamaica Plain,,40.072685799999995,-82.817841
Riverway IV,open space,Jamaica Plain,,42.331542600000006,-71.11190429999999
Jamaica Pond Park,open space,Jamaica Plain,,42.31775735,-71.12030205976009
Condor Street Beach II,open space,East Boston,,42.38314765,-71.02942230245195
Charlesgate II,open space,Fenway/Kenmore,,42.347082,-71.092694
London Street Park,open space,East Boston,,42.37187475,-71.03999283563553
Agassiz Road,open space,Fenway/Kenmore,,42.3432059,-71.0938409
Columbia Road Park,open space,Dorchester,,42.308633,-71.07449100000001
Edward Everett Square,open space,Dorchester,,42.31361545,-71.05991373111263
Boylston Street I,open space,Fenway/Kenmore,,42.31919120000001,-71.11143456938909
Boylston Street II,open space,Fenway/Kenmore,,42.3520843,-71.0631338174366
The Fenway II,open space,Fenway/Kenmore,,42.345667999999996,-71.090535
Park Drive I,open space,Fenway/Kenmore,,42.345092,-71.09460200000001
Park Drive II,open space,Fenway/Kenmore,,42.345048,-71.094388
Riverway II,open space,Fenway/Kenmore,,42.343139,-71.103989
Riverway V,open space,Fenway/Kenmore,,42.331542600000006,-71.11190429999999
Commonwealth Avenue Mall I,open space,Back Bay/Beacon Hill,,42.3528319,-71.0739761
Centre Street II,open space,Roslindale,,42.298286600000004,-71.1299412
Centre Street I,open space,Jamaica Plain,,42.300059999999995,-71.12786
Centre Street III,open space,Jamaica Plain,,42.300059999999995,-71.12786
Centre Street V,open space,Roslindale,,42.298286600000004,-71.1299412
Centre Street IV,open space,West Roxbury,,42.2819195,-71.15782990000001
Pier 10 Mall,open space,South Boston,,42.377171,-71.04852815772813
Aquarium Harborwalk II,open space,Central Boston,,42.35920025,-71.04918409320726
Rowe's Wharf Harborwalk,open space,Central Boston,,42.35644675,-71.05032374307919
Mary Soo Hoo Park,open space,Central Boston,,42.3514837,-71.05951210011298
Brookside Community Garden,open space,Roxbury,,42.3135211,-71.10433734593681
Brighton Common,open space,Allston-Brighton,,42.352039000000005,-71.12545
Sweeney Playground,open space,South Boston,,42.33718055,-71.05152324317969
Ryan Play Area,open space,Dorchester,,42.31773800000001,-71.0562316756475
Lambert Avenue Playground,open space,Roxbury,,42.32720835,-71.09065107020767
Lincoln Square,open space,Central Boston,,42.3515714,-71.06800504126021
Magazine Street Garden,open space,Roxbury,,42.326687,-71.07147900000001
Clifford Playground,open space,Roxbury,,42.326438700000004,-71.06886712725239
Elmhurst Street Park,open space,Dorchester,,42.289051,-71.076562
Kevin Fitzgerald Park,open space,Jamaica Plain,,42.3323789,-71.10338208205296
Joe's American Harborwalk,open space,Central Boston,,42.3619797,-71.0506858
Spencer Street Garden,open space,Dorchester,,42.294289,-71.076274
Nira Avenue Garden,open space,Jamaica Plain,,42.325209,-71.108581
Lincoln Square,open space,South Boston,,42.3346151,-71.03398492337662
Laviscount Park,open space,Roxbury,,42.316513799999996,-71.0861547829536
Statler Park,open space,Central Boston,,42.35063365,-71.0689686461831
Hynes Playground,open space,West Roxbury,,42.29460425,-71.15346677812852
North Square,open space,Central Boston,,42.36385865,-71.05337206115591
Roxbury Heritage State Park I,open space,Roxbury,,42.33070105,-71.09009821210236
Blake Estates Urban Wild I,open space,Hyde Park,,42.25141370000001,-71.1246338266279
Railroad Avenue,open space,Hyde Park,,41.849658000000005,-73.930015
Fairview Cemetery,open space,Hyde Park,,42.2464487,-71.1370851
Belvidere/Dalton Plaza,open space,Back Bay/Beacon Hill,,42.34639415,-71.08461436891159
Joyce Playground,open space,Allston-Brighton,,42.34551305,-71.15143614301809
Cassidy Playground,open space,Allston-Brighton,,42.33473815,-71.15234119012611
Shubow Park I,open space,Allston-Brighton,,42.34044255,-71.15193606052728
Shubow Park II,open space,Allston-Brighton,,42.34044255,-71.15193606052728
St. Augustine Burying Ground,open space,South Boston,,42.33432215,-71.04964772515245
Central Square,open space,East Boston,,42.3750202,-71.0393784
Watson Park II,open space,South End,,42.34369030000001,-71.06849834470512
Watson Park I,open space,South End,,42.34369030000001,-71.06849834470512
Rossmore/Stedman Park,open space,Jamaica Plain,,42.3047088,-71.10665186258402
The Fenway I,open space,Fenway/Kenmore,,42.345642,-71.090754
Avenue Louis Pasteur,open space,Fenway/Kenmore,,42.33874960000001,-71.1020443
BU Grounds West,open space,Allston-Brighton,,42.325465799999996,-71.07616006440225
BU Grounds Central,open space,Fenway/Kenmore,,42.325465799999996,-71.07616006440225
BU Grounds South,open space,Fenway/Kenmore,,42.325465799999996,-71.07616006440225
BU Yard,open space,Fenway/Kenmore,,42.35031725,-71.10122725124097
BU Grounds East,open space,Fenway/Kenmore,,52.942507299999995,-0.1977864
Aquarium Plaza,open space,Central Boston,,42.359562200000006,-71.0520083
Aquarium Harborwalk I,open space,Central Boston,,42.35920025,-71.04918409320726
Hanlon Square,open space,Jamaica Plain,,42.33422155,-71.1052259350505
Essex Square,open space,Charlestown,,42.37942635,-71.07046143456222
Mt. Pleasant Play Area,open space,Roxbury,,42.3270166,-71.0791695919094
Joslin Park,open space,Fenway/Kenmore,,42.3383829,-71.10873167020853
Lawn Street Garden,open space,Jamaica Plain,,41.55719929999999,-73.0067959
Round Hill Street Garden,open space,Jamaica Plain,,42.324682,-71.106205
Portsmouth Street Playground,open space,Allston-Brighton,,42.3593982,-71.14539187985767
Heath Square,open space,Jamaica Plain,,42.3263221,-71.10035640017162
Tremlett Square,open space,Dorchester,,42.295414,-71.067833
Bonito Square,open space,East Boston,,42.38960465,-70.9990411209471
Richardson Park,open space,Dorchester,,38.592353,-75.914344
Columbia Road,open space,Dorchester,,42.308633,-71.07449100000001
Mount Vernon Square,open space,Back Bay/Beacon Hill,,42.3581391,-71.07122690000001
Charlestown Veteran's Memorial Park,open space,Charlestown,,42.37237395,-71.06178878129565
Castle Square Parks,open space,South End,,42.3455415,-71.06806286917791
Hillside/Calumet,open space,Jamaica Plain,,42.33181,-71.104288
Judge Street,open space,Jamaica Plain,,42.32973,-71.102611
Roberts Playground,open space,Dorchester,,42.2856959,-71.07351209042595
Olmsted Park,open space,Jamaica Plain,,42.322433200000006,-71.11872941926197
Frieda Garcia Park,open space,Back Bay/Beacon Hill,,42.34816215,-71.07340601880196
Geneva Cliffs II,open space,North Dorchester,,42.30358085,-71.07298702555845
Boundary I,open space,Roslindale,,52.979824699999995,-0.046992900000000004
Stony Brook Reservation III,open space,Roslindale,,42.26093765,-71.13947417977431
George Wright Golf Course,open space,Roslindale,,42.26768995000001,-71.13506865186486
Fan Pier Harborwalk,open space,South Boston,,42.35479265,-71.04490536895163
McLaughlin Playground,open space,Jamaica Plain,,42.3283683,-71.10278148937931
Parker Hilltop,open space,Jamaica Plain,,42.32901005,-71.10481615762045
Parker/Terrace,open space,Jamaica Plain,,42.3292644,-71.105052
Butterfly Garden,open space,Jamaica Plain,,42.30464225,-71.08944676485672
Mission Hill Community Garden I,open space,Jamaica Plain,,42.33021715,-71.0978559568202
Mission Hill Community Garden II,open space,Jamaica Plain,,42.33021715,-71.0978559568202
Central Court,open space,Central Boston,,4.79646475,-75.69440712986996
LoPresti Park,open space,East Boston,,42.3703295,-71.0434068
Raymond V. Mellone Park I,open space,Allston-Brighton,,42.36060790000001,-71.12758887939431
Raymond V. Mellone Park II,open space,Allston-Brighton,,42.36060790000001,-71.12758887939431
Elliot Norton Park,open space,Central Boston,,42.3491622,-71.06594429362417
Bay Village Neighborhood Park,open space,Central Boston,,42.34949395,-71.06675010982039
Beauford Play Area,open space,Roxbury,,42.31592815000001,-71.07560944814776
King School Park,open space,Roxbury,,42.3104037,-71.07619530097742
Children's Park,open space,Roxbury,,42.32445,-71.10214870000001
The Food Project Lot #2,open space,Roxbury,,42.32019415,-71.07435637457833
Leyland Street Garden,open space,Roxbury,,42.320643,-71.070665
Magnolia & Woodford Streets Garden,open space,Roxbury,,42.3182297,-71.07024544127499
Denton Square,open space,Roxbury,,33.1585243,-97.1114524
Sargent Street Park,open space,Roxbury,,42.315865,-71.073874
Woodcliff,open space,Roxbury,,42.315979999999996,-71.076947
Ceylon Park I,open space,Roxbury,,42.31042815000001,-71.07348729970965
Ceylon Park II,open space,Roxbury,,42.31042815000001,-71.07348729970965
Hannon Playground,open space,Roxbury,,42.31948300000001,-71.07153151550958
Melnea Cass Boulevard I,open space,South End,,42.332221000000004,-71.07302299999999
Portal Park,open space,Central Boston,,42.3662245,-71.0603287
Old West Church Yard,open space,Central Boston,,42.361701000000004,-71.06422945
Healy Playground,open space,Roslindale,,42.2881385,-71.12347951499031
South End Library Park,open space,South End,,42.3412391,-71.07726999564659
Menino Park,open space,Charlestown,,42.3780804,-71.04848834660193
Mission Main Park,open space,Mission Hill,,42.3347023,-71.09817942114266
Tree House Plaza,open space,Mission Hill,,40.4181027,-80.04604192789823
Mission Church Gardens,open space,Mission Hill,,45.84986385,-84.60880827533856
Franklin Hill Green,open space,Mattapan,,42.2957966,-71.08992159762096
Spectacle Island I,open space,Harbor Islands,,42.3238467,-70.98614413274603
Spectacle Island II,open space,Harbor Islands,,42.3238467,-70.98614413274603
Spaulding Rehabilitation Plaza,open space,Charlestown,,42.37858565000001,-71.04908977417259
Christopher Columbus Park,open space,Central Boston,,42.3612244,-71.05161733948714
Long Wharf,open space,Central Boston,,42.3597695,-71.0509313
Peter Looney Park,open space,Charlestown,,42.374237799999996,-71.06560681659109
Liberty Tree Park,open space,Central Boston,,42.5499755,-70.9396112
Don Orione,open space,East Boston,,42.39054829999999,-71.00517496812216
Constitution Beach,open space,East Boston,,42.38090375,-71.01162910065872
Nira Rock,open space,Jamaica Plain,,42.32535965,-71.10989756908239
Jefferson Playground,open space,Jamaica Plain,,42.326130299999996,-71.10860602946448
Chapman,open space,Jamaica Plain,,42.3577591,-71.059758
Showa,open space,Jamaica Plain,,42.30764125,-71.13151014960363
Arborway I,open space,Jamaica Plain,,42.3132062,-71.12264401874907
Amory Street Park,open space,Jamaica Plain,,42.308935999999996,-71.108032
Puopolo Playground,open space,Central Boston,,42.36849785,-71.0550066410051
Boston State Hospital Campus,open space,Mattapan,,42.2675657,-71.0924273
State Public Health Campus,open space,Mattapan,,42.30114535,-71.11695345686695
Olmsted Green Park,open space,Mattapan,,42.2873649,-71.09750492661243
Stony Brook Reservation II,open space,West Roxbury,,42.26093765,-71.13947417977431
Salvation Army Field,open space,Dorchester,,42.318923100000006,-71.07036326622475
A Street Park I,open space,South Boston,,42.340416600000005,-71.0570343
Rolling Bridge Park,open space,South Boston,,42.34570615,-71.0579257516151
Fourth Street Park,open space,South Boston,,42.343212799999996,-71.06105314065151
Franklin Park,open space,Roxbury,,42.30275820000001,-71.09492479361211
Q Park,open space,South Boston,,38.7628465,-84.35243670000001
Charlesgate I,open space,Back Bay/Beacon Hill,,42.3611781,-71.0714777394351
Adams Park,open space,Roslindale,,42.28638955,-71.12853980403355
Arnold Arboretum,open space,Jamaica Plain,,42.299438,-71.12260490712889
Soldiers Field,open space,Allston-Brighton,,42.3690144,-71.13118085453785
YMCA Athletic Field,open space,Roxbury,,42.318135,-71.08430663899156
Mt. Vernon Street Plaza,open space,Charlestown,,42.37457075,-71.05796812335284
Austin & Main Plaza,open space,Charlestown,,42.3744042,-71.06704040000001
Pope John Paul II Park I,open space,Dorchester,,42.2800149,-71.04547170000001
Port Norfolk Park,open space,Dorchester,,42.2916151,-71.04051949999999
Neponset River Reservation II,open space,Dorchester,,42.2707281,-71.07014613191244
Pope John Paul II Park II,open space,Dorchester,,42.2800149,-71.04547170000001
Neponset River Reservation I,open space,Multi-District,,42.28772220000001,-71.03959200748196
West Link Park,open space,Dorchester,,42.32234655,-71.04408491926381
Carson Beach,open space,South Boston,,42.32664775,-71.04778012391304
Commercial Point,open space,Dorchester,,42.97396265,-80.96814242103427
Charles River Reservation,open space,Multi-District,,42.3644229,-71.07239532150537
Porzio Park II,open space,East Boston,,42.364790500000005,-71.028491
Porzio Park,open space,East Boston,,42.36450655,-71.02863659094578
West Roxbury Quarry,open space,West Roxbury,,42.26875245,-71.15859821754111
Ross Playground,open space,Hyde Park,,42.2642865,-71.1131264053945
Canterbury I,open space,Roslindale,,42.292957,-71.098749
Canterbury II,open space,Roslindale,,-43.5556091,172.5305171
Canterbury III,open space,Roslindale,,42.29248369534352,-71.09809905735136
Mt. Hope Cemetery,open space,Roslindale,,42.2874874,-71.1303173
Calvary Cemetery,open space,Roslindale,,42.27724665,-71.11105572442767
New Calvary Cemetery,open space,Mattapan,,42.27928885,-71.10339494458277
Savin Hill Park,open space,Dorchester,,42.30819395,-71.0620442942198
Southwest Corridor Park,open space,Multi-District,,42.34110715,-71.08342407629905
Orton Field,open space,South Boston,,42.3383823,-71.05333615741935
Paul Gore Street Park,open space,Jamaica Plain,,42.319301,-71.107528
Allen Park,open space,Dorchester,,42.30812905,-71.06312900140287
Boston Nature Center,open space,Mattapan,,42.28839055,-71.10103338594612
Cunningham Park,open space,Allston-Brighton,,42.3500634,-71.14782491995926
McLean Playground,open space,East Boston,,42.3826943,-71.01923140246075
Fidelis Way Park,open space,Allston-Brighton,,42.3477856,-71.1430428196755
Harambee Park,open space,Mattapan,,42.2928131,-71.08482105025726
St Mary's Cemetery,open space,Mattapan,,42.259631299999995,-71.15599897659499
Egleston Community Orchard,open space,Jamaica Plain,,42.3141479,-71.09922420000001
VFW Parkway I,open space,West Roxbury,,42.291706,-71.165736
VFW Parkway II,open space,West Roxbury,,42.291706,-71.165736
Carroll Pond Playground,open space,West Roxbury,,42.2564279,-71.15982125357576
O'Donnell Square,open space,Dorchester,,42.294540000000005,-71.0603
Grove Street Cemetery,open space,West Roxbury,,42.26572,-71.158876
Old City Hall Grounds,open space,Central Boston,,42.3579056,-71.05957884973708
King's Chapel Burying Ground,open space,Central Boston,,42.358254200000005,-71.05983194636997
A Street Park II,open space,South Boston,,42.340416600000005,-71.0570343
Columbia Park,open space,South Boston,,42.32088125,-71.05604478464213
Washburn Street Green II,open space,South Boston,,42.325834,-71.058719
Columbia Road Mall,open space,Dorchester,,42.3034187,-71.08395920000001
Bellevue Street Green,open space,West Roxbury,,42.2835344,-71.15635379999999
Mahoney Park,open space,Allston-Brighton,,42.352500899999995,-71.06467190000001
Walnut Park,open space,Roxbury,,42.315143,-71.095825
Mirabella Pool,open space,Central Boston,,42.36868085,-71.05393366881515
Meridian-London Triangle,open space,East Boston,,42.3730729,-71.03918878402061
Union Park,open space,South End,,42.34286385,-71.07144319188461
Blake Estates Urban Wild II,open space,Hyde Park,,42.25141370000001,-71.1246338266279
Stony Brook Reservation CR,open space,Hyde Park,,42.26093765,-71.13947417977431
Rena Park,open space,Allston-Brighton,,42.3607186,-71.12826007972308
Murphy Playground I,open space,Jamaica Plain,,42.3072208,-71.11324436346217
Murphy Playground II,open space,Jamaica Plain,,42.3072208,-71.11324436346217
Mount Hope Park,open space,Roslindale,,42.2874874,-71.1303173
Oak Square I,open space,Allston-Brighton,,42.3511012,-71.1675914
Henry Square,open space,Dorchester,,41.4804101,-90.17318809999999
Oak Square II,open space,Allston-Brighton,,42.3511012,-71.1675914
Melnea A. Cass Recreational Complex,open space,Roxbury,,42.321842100000005,-71.09092958322236
Thompson Square,open space,Charlestown,,42.37521845,-71.06402384976764
